{
"type": "FeatureCollection",
"name": "groceries",
"features": [
{ "type": "Feature", "properties": { "name": "Hankook Korean Market" }, "geometry": { "type": "Point", "coordinates": [ -118.24802, 34.2295 ] } },
{ "type": "Feature", "properties": { "name": "Korean Market" }, "geometry": { "type": "Point", "coordinates": [ -82.23212, 34.85141 ] } },
{ "type": "Feature", "properties": { "name": "Korean Market" }, "geometry": { "type": "Point", "coordinates": [ -82.30469, 34.77946 ] } },
{ "type": "Feature", "properties": { "name": "H Mart" }, "geometry": { "type": "Point", "coordinates": [ -73.97058, 40.86113 ] } },
{ "type": "Feature", "properties": { "name": "H Mart" }, "geometry": { "type": "Point", "coordinates": [ -73.96655, 40.80389 ] } },
{ "type": "Feature", "properties": { "name": "Dutchmart Foods" }, "geometry": { "type": "Point", "coordinates": [ -96.05725, 43.00638 ] } },
{ "type": "Feature", "properties": { "name": "Galleria Market - Galleria Vermont" }, "geometry": { "type": "Point", "coordinates": [ -118.29093, 34.06558 ] } },
{ "type": "Feature", "properties": { "name": "HealthMart" }, "geometry": { "type": "Point", "coordinates": [ -74.16124, 41.33412 ] } },
{ "type": "Feature", "properties": { "name": "Fresh Mart" }, "geometry": { "type": "Point", "coordinates": [ -89.22988, 43.18858 ] } },
{ "type": "Feature", "properties": { "name": "First Korean Market" }, "geometry": { "type": "Point", "coordinates": [ -122.46899, 37.78062 ] } },
{ "type": "Feature", "properties": { "name": "H Mart" }, "geometry": { "type": "Point", "coordinates": [ -122.31304, 47.6589 ] } },
{ "type": "Feature", "properties": { "name": "Arirang Oriental Market" }, "geometry": { "type": "Point", "coordinates": [ -122.77022, 47.05614 ] } },
{ "type": "Feature", "properties": { "name": "Hankook" }, "geometry": { "type": "Point", "coordinates": [ -122.00148, 37.35171 ] } },
{ "type": "Feature", "properties": { "name": "H Mart" }, "geometry": { "type": "Point", "coordinates": [ -73.98744, 40.74784 ] } },
{ "type": "Feature", "properties": { "name": "H Mart" }, "geometry": { "type": "Point", "coordinates": [ -104.86311, 39.66578 ] } },
{ "type": "Feature", "properties": { "name": "H Mart" }, "geometry": { "type": "Point", "coordinates": [ -74.07164, 40.91569 ] } },
{ "type": "Feature", "properties": { "name": "Korean Korner" }, "geometry": { "type": "Point", "coordinates": [ -77.08205, 39.05719 ] } },
{ "type": "Feature", "properties": { "name": "Super H Mart" }, "geometry": { "type": "Point", "coordinates": [ -84.28803, 33.90786 ] } },
{ "type": "Feature", "properties": { "name": "H Mart" }, "geometry": { "type": "Point", "coordinates": [ -105.05151, 39.86246 ] } },
{ "type": "Feature", "properties": { "name": "Seoul Korean Market" }, "geometry": { "type": "Point", "coordinates": [ -118.23091, 34.21896 ] } },
{ "type": "Feature", "properties": { "name": "Zion Market" }, "geometry": { "type": "Point", "coordinates": [ -122.26771, 37.8178 ] } },
{ "type": "Feature", "properties": { "name": "H Mart" }, "geometry": { "type": "Point", "coordinates": [ -73.91477, 40.75182 ] } },
{ "type": "Feature", "properties": { "name": "H Mart" }, "geometry": { "type": "Point", "coordinates": [ -122.19585, 47.61135 ] } },
{ "type": "Feature", "properties": { "name": "Dashmart" }, "geometry": { "type": "Point", "coordinates": [ -73.992, 40.73005 ] } },
{ "type": "Feature", "properties": { "name": "H Mart" }, "geometry": { "type": "Point", "coordinates": [ -88.07777, 42.05108 ] } },
{ "type": "Feature", "properties": { "name": "H Mart" }, "geometry": { "type": "Point", "coordinates": [ -74.97713, 39.90812 ] } },
{ "type": "Feature", "properties": { "name": "Barney Peach Mart" }, "geometry": { "type": "Point", "coordinates": [ -83.51389, 31.00824 ] } },
{ "type": "Feature", "properties": { "name": "H Mart" }, "geometry": { "type": "Point", "coordinates": [ -73.98296, 40.77714 ] } },
{ "type": "Feature", "properties": { "name": "Sarah Mart" }, "geometry": { "type": "Point", "coordinates": [ -87.6784, 41.947 ] } },
{ "type": "Feature", "properties": { "name": "Classic Deli & Grill" }, "geometry": { "type": "Point", "coordinates": [ -73.90807, 40.70287 ] } },
{ "type": "Feature", "properties": { "name": "Classic Cigars - British Goodies" }, "geometry": { "type": "Point", "coordinates": [ -77.09347, 38.88872 ] } },
{ "type": "Feature", "properties": { "name": "Sambok Korean Groceries" }, "geometry": { "type": "Point", "coordinates": [ -79.98517, 40.45043 ] } },
{ "type": "Feature", "properties": { "name": "Woori Food Market" }, "geometry": { "type": "Point", "coordinates": [ -122.43265, 37.78376 ] } },
{ "type": "Feature", "properties": { "name": "Dashmart" }, "geometry": { "type": "Point", "coordinates": [ -83.21402, 42.19587 ] } },
{ "type": "Feature", "properties": { "name": "English Mart" }, "geometry": { "type": "Point", "coordinates": [ -80.01881, 35.94928 ] } },
{ "type": "Feature", "properties": { "name": "H Mart" }, "geometry": { "type": "Point", "coordinates": [ -75.13713, 40.06309 ] } },
{ "type": "Feature", "properties": { "name": "H Mart" }, "geometry": { "type": "Point", "coordinates": [ -122.34025, 47.61031 ] } },
{ "type": "Feature", "properties": { "name": "Hannam Market World" }, "geometry": { "type": "Point", "coordinates": [ -117.84427, 33.99837 ] } },
{ "type": "Feature", "properties": { "name": "D&H Mart Of Dunn 1" }, "geometry": { "type": "Point", "coordinates": [ -78.6081, 35.32688 ] } },
{ "type": "Feature", "properties": { "name": "Fresh Mart" }, "geometry": { "type": "Point", "coordinates": [ -121.85291, 37.35047 ] } },
{ "type": "Feature", "properties": { "name": "H Mart" }, "geometry": { "type": "Point", "coordinates": [ -73.98909, 40.73023 ] } },
{ "type": "Feature", "properties": { "name": "Massis Bakery" }, "geometry": { "type": "Point", "coordinates": [ -71.15993, 42.37019 ] } },
{ "type": "Feature", "properties": { "name": "Diana Korean Market" }, "geometry": { "type": "Point", "coordinates": [ -116.31108, 43.61836 ] } },
{ "type": "Feature", "properties": { "name": "Saint Joseph Mart" }, "geometry": { "type": "Point", "coordinates": [ -86.48497, 42.08506 ] } },
{ "type": "Feature", "properties": { "name": "H Mart" }, "geometry": { "type": "Point", "coordinates": [ -73.82067, 40.76483 ] } },
{ "type": "Feature", "properties": { "name": "FreshMart" }, "geometry": { "type": "Point", "coordinates": [ -87.64182, 41.84883 ] } },
{ "type": "Feature", "properties": { "name": "Mekkah Mart" }, "geometry": { "type": "Point", "coordinates": [ -74.16508, 40.62671 ] } },
{ "type": "Feature", "properties": { "name": "Hillsborough Mart" }, "geometry": { "type": "Point", "coordinates": [ -78.6563, 35.78322 ] } },
{ "type": "Feature", "properties": { "name": "BTS Korean Food Market" }, "geometry": { "type": "Point", "coordinates": [ -73.94995, 40.68135 ] } },
{ "type": "Feature", "properties": { "name": "Hannam Chain" }, "geometry": { "type": "Point", "coordinates": [ -118.35455, 33.83584 ] } },
{ "type": "Feature", "properties": { "name": "Galleria Market" }, "geometry": { "type": "Point", "coordinates": [ -118.30851, 34.05232 ] } },
{ "type": "Feature", "properties": { "name": "Fresh Mart" }, "geometry": { "type": "Point", "coordinates": [ -71.09401, 42.36643 ] } },
{ "type": "Feature", "properties": { "name": "H-H Mart" }, "geometry": { "type": "Point", "coordinates": [ -72.7833, 41.54606 ] } },
{ "type": "Feature", "properties": { "name": "GH Mart" }, "geometry": { "type": "Point", "coordinates": [ -79.81801, 35.61078 ] } },
{ "type": "Feature", "properties": { "name": "D Q Smith Mart" }, "geometry": { "type": "Point", "coordinates": [ -77.97992, 34.68957 ] } },
{ "type": "Feature", "properties": { "name": "Dash Mart" }, "geometry": { "type": "Point", "coordinates": [ -112.10985, 33.52496 ] } },
{ "type": "Feature", "properties": { "name": "Abassi Middle Eastern Grocery" }, "geometry": { "type": "Point", "coordinates": [ -74.00589, 40.60392 ] } },
{ "type": "Feature", "properties": { "name": "Passion Beauty Supplies & African Boutique & Food" }, "geometry": { "type": "Point", "coordinates": [ -92.34351, 42.47619 ] } },
{ "type": "Feature", "properties": { "name": "Beach Mart" }, "geometry": { "type": "Point", "coordinates": [ -70.81017, 42.91192 ] } },
{ "type": "Feature", "properties": { "name": "DashMart" }, "geometry": { "type": "Point", "coordinates": [ -122.46833, 37.67732 ] } },
{ "type": "Feature", "properties": { "name": "Momezon Korean Market" }, "geometry": { "type": "Point", "coordinates": [ -77.89026, 40.80629 ] } },
{ "type": "Feature", "properties": { "name": "Classic Wine Vinegar Co." }, "geometry": { "type": "Point", "coordinates": [ -120.9799, 37.57891 ] } },
{ "type": "Feature", "properties": { "name": "Zion Market" }, "geometry": { "type": "Point", "coordinates": [ -117.99548, 33.88281 ] } },
{ "type": "Feature", "properties": { "name": "Hannam Chain Super Market" }, "geometry": { "type": "Point", "coordinates": [ -117.99722, 33.88493 ] } },
{ "type": "Feature", "properties": { "name": "Al Makkah Mart (Zabihah Halal Meat and Groceries)" }, "geometry": { "type": "Point", "coordinates": [ -77.44744, 38.89871 ] } },
{ "type": "Feature", "properties": { "name": "Fort Worth Mart" }, "geometry": { "type": "Point", "coordinates": [ -97.41169, 32.81098 ] } },
{ "type": "Feature", "properties": { "name": "Asiana Market (Korean & Japanese)" }, "geometry": { "type": "Point", "coordinates": [ -104.72186, 38.88607 ] } },
{ "type": "Feature", "properties": { "name": "DashMart" }, "geometry": { "type": "Point", "coordinates": [ -121.88602, 37.32942 ] } },
{ "type": "Feature", "properties": { "name": "DashMart" }, "geometry": { "type": "Point", "coordinates": [ -83.26816, 42.60588 ] } },
{ "type": "Feature", "properties": { "name": "Classic Mart" }, "geometry": { "type": "Point", "coordinates": [ -97.80838, 32.75919 ] } },
{ "type": "Feature", "properties": { "name": "DashMart" }, "geometry": { "type": "Point", "coordinates": [ -97.33186, 32.71511 ] } },
{ "type": "Feature", "properties": { "name": "Arirang Asian Food Market" }, "geometry": { "type": "Point", "coordinates": [ -83.05974, 40.0652 ] } },
{ "type": "Feature", "properties": { "name": "Arirang Supermarket" }, "geometry": { "type": "Point", "coordinates": [ -104.74736, 38.84624 ] } },
{ "type": "Feature", "properties": { "name": "Lehigh Mart" }, "geometry": { "type": "Point", "coordinates": [ -75.57531, 40.86888 ] } },
{ "type": "Feature", "properties": { "name": "Fresh Mart" }, "geometry": { "type": "Point", "coordinates": [ -95.60816, 29.88011 ] } },
{ "type": "Feature", "properties": { "name": "City Freshmart" }, "geometry": { "type": "Point", "coordinates": [ -73.1015, 41.30412 ] } },
{ "type": "Feature", "properties": { "name": "DashMart" }, "geometry": { "type": "Point", "coordinates": [ -83.65352, 42.25125 ] } },
{ "type": "Feature", "properties": { "name": "Fresh Mart" }, "geometry": { "type": "Point", "coordinates": [ -93.27542, 44.97619 ] } },
{ "type": "Feature", "properties": { "name": "Cassie's Corner Store" }, "geometry": { "type": "Point", "coordinates": [ -71.14147, 42.17122 ] } },
{ "type": "Feature", "properties": { "name": "DashMart" }, "geometry": { "type": "Point", "coordinates": [ -90.29873, 38.61842 ] } },
{ "type": "Feature", "properties": { "name": "Lunah Mart" }, "geometry": { "type": "Point", "coordinates": [ -94.0721, 33.43527 ] } },
{ "type": "Feature", "properties": { "name": "H Mart Tampa - Coming Soon" }, "geometry": { "type": "Point", "coordinates": [ -82.50892, 27.99458 ] } },
{ "type": "Feature", "properties": { "name": "Fresh Mart Asian Grocery" }, "geometry": { "type": "Point", "coordinates": [ -87.47675, 41.53672 ] } },
{ "type": "Feature", "properties": { "name": "DashMart Cleveland" }, "geometry": { "type": "Point", "coordinates": [ -81.68934, 41.49177 ] } },
{ "type": "Feature", "properties": { "name": "Dash Mart" }, "geometry": { "type": "Point", "coordinates": [ -110.92273, 32.23575 ] } },
{ "type": "Feature", "properties": { "name": "H Mart" }, "geometry": { "type": "Point", "coordinates": [ -122.1158, 47.67042 ] } },
{ "type": "Feature", "properties": { "name": "Super H Mart" }, "geometry": { "type": "Point", "coordinates": [ -84.14303, 33.96986 ] } },
{ "type": "Feature", "properties": { "name": "Koreana Plaza" }, "geometry": { "type": "Point", "coordinates": [ -122.26785, 37.81356 ] } },
{ "type": "Feature", "properties": { "name": "H Mart" }, "geometry": { "type": "Point", "coordinates": [ -122.31532, 47.32185 ] } },
{ "type": "Feature", "properties": { "name": "Springs Korean Market" }, "geometry": { "type": "Point", "coordinates": [ -104.75605, 38.83238 ] } },
{ "type": "Feature", "properties": { "name": "Ranch Mart" }, "geometry": { "type": "Point", "coordinates": [ -103.85675, 44.65494 ] } },
{ "type": "Feature", "properties": { "name": "H Mart" }, "geometry": { "type": "Point", "coordinates": [ -122.63046, 45.51667 ] } },
{ "type": "Feature", "properties": { "name": "H Mart" }, "geometry": { "type": "Point", "coordinates": [ -73.78143, 40.75354 ] } },
{ "type": "Feature", "properties": { "name": "Atlantis Fresh Mart" }, "geometry": { "type": "Point", "coordinates": [ -73.9034, 40.68044 ] } },
{ "type": "Feature", "properties": { "name": "Massie's Country Market" }, "geometry": { "type": "Point", "coordinates": [ -87.30478, 45.71063 ] } },
{ "type": "Feature", "properties": { "name": "Korean Korner" }, "geometry": { "type": "Point", "coordinates": [ -77.08203, 39.05721 ] } },
{ "type": "Feature", "properties": { "name": "FreshMart" }, "geometry": { "type": "Point", "coordinates": [ -74.41679, 40.50103 ] } },
{ "type": "Feature", "properties": { "name": "Zion Market" }, "geometry": { "type": "Point", "coordinates": [ -117.76073, 33.71228 ] } },
{ "type": "Feature", "properties": { "name": "H Mart" }, "geometry": { "type": "Point", "coordinates": [ -122.27746, 47.83313 ] } },
{ "type": "Feature", "properties": { "name": "Burchmart" }, "geometry": { "type": "Point", "coordinates": [ -76.63577, 38.29686 ] } },
{ "type": "Feature", "properties": { "name": "Burchmart" }, "geometry": { "type": "Point", "coordinates": [ -76.95776, 38.64838 ] } },
{ "type": "Feature", "properties": { "name": "Classic Drive Thru" }, "geometry": { "type": "Point", "coordinates": [ -81.37251, 40.80877 ] } },
{ "type": "Feature", "properties": { "name": "Hannam Chain Supermarket" }, "geometry": { "type": "Point", "coordinates": [ -118.29309, 34.05195 ] } },
{ "type": "Feature", "properties": { "name": "H Mart" }, "geometry": { "type": "Point", "coordinates": [ -122.7824, 45.42086 ] } },
{ "type": "Feature", "properties": { "name": "ASSI" }, "geometry": { "type": "Point", "coordinates": [ -84.08301, 34.00477 ] } },
{ "type": "Feature", "properties": { "name": "Good N Fresh Mart" }, "geometry": { "type": "Point", "coordinates": [ -96.64511, 32.76184 ] } },
{ "type": "Feature", "properties": { "name": "Assi Plaza International Food" }, "geometry": { "type": "Point", "coordinates": [ -75.25433, 40.22536 ] } },
{ "type": "Feature", "properties": { "name": "H Mart" }, "geometry": { "type": "Point", "coordinates": [ -111.93267, 40.58919 ] } },
{ "type": "Feature", "properties": { "name": "Fleck's Fresh Mart" }, "geometry": { "type": "Point", "coordinates": [ -83.48638, 42.27134 ] } },
{ "type": "Feature", "properties": { "name": "DashMart" }, "geometry": { "type": "Point", "coordinates": [ -80.87507, 35.17503 ] } },
{ "type": "Feature", "properties": { "name": "Top Notch Mart" }, "geometry": { "type": "Point", "coordinates": [ -80.89186, 34.11272 ] } },
{ "type": "Feature", "properties": { "name": "Two Notch Mart" }, "geometry": { "type": "Point", "coordinates": [ -80.94604, 34.07556 ] } },
{ "type": "Feature", "properties": { "name": "Flash Mart" }, "geometry": { "type": "Point", "coordinates": [ -90.18425, 35.16408 ] } },
{ "type": "Feature", "properties": { "name": "Keith Mart" }, "geometry": { "type": "Point", "coordinates": [ -94.97123, 33.18053 ] } },
{ "type": "Feature", "properties": { "name": "Dutch Mart" }, "geometry": { "type": "Point", "coordinates": [ -74.20054, 42.92713 ] } },
{ "type": "Feature", "properties": { "name": "H Mart" }, "geometry": { "type": "Point", "coordinates": [ -122.37038, 47.66256 ] } },
{ "type": "Feature", "properties": { "name": "Kash Mart" }, "geometry": { "type": "Point", "coordinates": [ -80.1107, 35.63394 ] } },
{ "type": "Feature", "properties": { "name": "Classic Mart" }, "geometry": { "type": "Point", "coordinates": [ -101.64353, 33.43396 ] } },
{ "type": "Feature", "properties": { "name": "H Mart" }, "geometry": { "type": "Point", "coordinates": [ -117.71738, 33.99288 ] } },
{ "type": "Feature", "properties": { "name": "Windsor Korean Market" }, "geometry": { "type": "Point", "coordinates": [ -83.03788, 42.31441 ] } },
{ "type": "Feature", "properties": { "name": "Ash Mart" }, "geometry": { "type": "Point", "coordinates": [ -71.31359, 41.47262 ] } },
{ "type": "Feature", "properties": { "name": "D & H Mart Of Dunn II" }, "geometry": { "type": "Point", "coordinates": [ -78.60209, 35.31382 ] } },
{ "type": "Feature", "properties": { "name": "L C Sarah Mart" }, "geometry": { "type": "Point", "coordinates": [ -97.45765, 31.05506 ] } },
{ "type": "Feature", "properties": { "name": "K&H Classic Stop" }, "geometry": { "type": "Point", "coordinates": [ -92.50683, 43.51147 ] } },
{ "type": "Feature", "properties": { "name": "Dash Mart" }, "geometry": { "type": "Point", "coordinates": [ -116.93527, 32.79618 ] } },
{ "type": "Feature", "properties": { "name": "Singh Mart" }, "geometry": { "type": "Point", "coordinates": [ -95.37881, 29.59661 ] } },
{ "type": "Feature", "properties": { "name": "Galleria Market" }, "geometry": { "type": "Point", "coordinates": [ -118.53739, 34.25625 ] } },
{ "type": "Feature", "properties": { "name": "Singh Mart" }, "geometry": { "type": "Point", "coordinates": [ -95.47935, 29.64043 ] } },
{ "type": "Feature", "properties": { "name": "Tech Mart" }, "geometry": { "type": "Point", "coordinates": [ -92.64826, 32.52361 ] } },
{ "type": "Feature", "properties": { "name": "H Mart" }, "geometry": { "type": "Point", "coordinates": [ -81.48515, 28.55347 ] } },
{ "type": "Feature", "properties": { "name": "Callawassie General Store" }, "geometry": { "type": "Point", "coordinates": [ -80.86762, 32.36331 ] } },
{ "type": "Feature", "properties": { "name": "Classic Corner Convenience Store" }, "geometry": { "type": "Point", "coordinates": [ -97.1087, 43.99369 ] } },
{ "type": "Feature", "properties": { "name": "H Mart" }, "geometry": { "type": "Point", "coordinates": [ -122.48542, 47.17864 ] } },
{ "type": "Feature", "properties": { "name": "Lehigh Mart" }, "geometry": { "type": "Point", "coordinates": [ -75.54962, 40.51307 ] } },
{ "type": "Feature", "properties": { "name": "Singh Mart" }, "geometry": { "type": "Point", "coordinates": [ -95.47966, 29.65843 ] } },
{ "type": "Feature", "properties": { "name": "H Mart" }, "geometry": { "type": "Point", "coordinates": [ -115.20635, 36.14233 ] } },
{ "type": "Feature", "properties": { "name": "Zion Market" }, "geometry": { "type": "Point", "coordinates": [ -117.14469, 32.83428 ] } },
{ "type": "Feature", "properties": { "name": "H Mart Mesa" }, "geometry": { "type": "Point", "coordinates": [ -111.87261, 33.41328 ] } },
{ "type": "Feature", "properties": { "name": "H Mart Arcadia" }, "geometry": { "type": "Point", "coordinates": [ -118.06582, 34.13194 ] } },
{ "type": "Feature", "properties": { "name": "H Mart Balboa" }, "geometry": { "type": "Point", "coordinates": [ -117.1574, 32.82085 ] } },
{ "type": "Feature", "properties": { "name": "H Mart Buena Park" }, "geometry": { "type": "Point", "coordinates": [ -117.99424, 33.88658 ] } },
{ "type": "Feature", "properties": { "name": "H Mart Cerritos" }, "geometry": { "type": "Point", "coordinates": [ -118.0821, 33.84887 ] } },
{ "type": "Feature", "properties": { "name": "H Mart Chino" }, "geometry": { "type": "Point", "coordinates": [ -117.71771, 33.99743 ] } },
{ "type": "Feature", "properties": { "name": "H Mart Diamond Bar" }, "geometry": { "type": "Point", "coordinates": [ -117.8382, 33.97376 ] } },
{ "type": "Feature", "properties": { "name": "H Mart Dublin" }, "geometry": { "type": "Point", "coordinates": [ -121.93104, 37.70228 ] } },
{ "type": "Feature", "properties": { "name": "H Mart Garden Grove" }, "geometry": { "type": "Point", "coordinates": [ -117.97725, 33.77436 ] } },
{ "type": "Feature", "properties": { "name": "H Mart Irvine" }, "geometry": { "type": "Point", "coordinates": [ -117.8345, 33.69008 ] } },
{ "type": "Feature", "properties": { "name": "H Mart Irvine NorthPark" }, "geometry": { "type": "Point", "coordinates": [ -117.77213, 33.72408 ] } },
{ "type": "Feature", "properties": { "name": "H Mart Irvine WestPark" }, "geometry": { "type": "Point", "coordinates": [ -117.81369, 33.68367 ] } },
{ "type": "Feature", "properties": { "name": "H Mart LA City Center" }, "geometry": { "type": "Point", "coordinates": [ -118.29886, 34.06323 ] } },
{ "type": "Feature", "properties": { "name": "H Mart LA K-Town" }, "geometry": { "type": "Point", "coordinates": [ -118.30896, 34.05456 ] } },
{ "type": "Feature", "properties": { "name": "H Mart LA Madang" }, "geometry": { "type": "Point", "coordinates": [ -118.30943, 34.06278 ] } },
{ "type": "Feature", "properties": { "name": "H Mart San Diego" }, "geometry": { "type": "Point", "coordinates": [ -117.12237, 32.91883 ] } },
{ "type": "Feature", "properties": { "name": "H Mart San Francisco" }, "geometry": { "type": "Point", "coordinates": [ -122.46781, 37.71031 ] } },
{ "type": "Feature", "properties": { "name": "H Mart San Jose De Anza" }, "geometry": { "type": "Point", "coordinates": [ -122.03222, 37.30405 ] } },
{ "type": "Feature", "properties": { "name": "H Mart San Jose Oakland" }, "geometry": { "type": "Point", "coordinates": [ -121.89452, 37.38383 ] } },
{ "type": "Feature", "properties": { "name": "H Mart Torrance" }, "geometry": { "type": "Point", "coordinates": [ -118.35997, 33.8084 ] } },
{ "type": "Feature", "properties": { "name": "H Mart Westminster" }, "geometry": { "type": "Point", "coordinates": [ -117.98774, 33.72422 ] } },
{ "type": "Feature", "properties": { "name": "H Mart Orlando" }, "geometry": { "type": "Point", "coordinates": [ -81.37905, 28.54212 ] } },
{ "type": "Feature", "properties": { "name": "H Mart Doraville" }, "geometry": { "type": "Point", "coordinates": [ -84.28326, 33.89816 ] } },
{ "type": "Feature", "properties": { "name": "H Mart Duluth" }, "geometry": { "type": "Point", "coordinates": [ -84.1441, 34.00286 ] } },
{ "type": "Feature", "properties": { "name": "H Mart Johns Creek" }, "geometry": { "type": "Point", "coordinates": [ -84.17713, 34.04629 ] } },
{ "type": "Feature", "properties": { "name": "H Mart Riverdale" }, "geometry": { "type": "Point", "coordinates": [ -84.41118, 33.58384 ] } },
{ "type": "Feature", "properties": { "name": "H Mart Suwanee" }, "geometry": { "type": "Point", "coordinates": [ -84.04319, 34.02224 ] } },
{ "type": "Feature", "properties": { "name": "H Mart Kakaako" }, "geometry": { "type": "Point", "coordinates": [ -157.86044, 21.3 ] } },
{ "type": "Feature", "properties": { "name": "H Mart Pearl City" }, "geometry": { "type": "Point", "coordinates": [ -157.96812, 21.395 ] } },
{ "type": "Feature", "properties": { "name": "H Mart Chicago" }, "geometry": { "type": "Point", "coordinates": [ -87.64471, 41.87774 ] } },
{ "type": "Feature", "properties": { "name": "H Mart Glenview" }, "geometry": { "type": "Point", "coordinates": [ -87.87412, 42.09152 ] } },
{ "type": "Feature", "properties": { "name": "H Mart Naperville" }, "geometry": { "type": "Point", "coordinates": [ -88.12352, 41.79579 ] } },
{ "type": "Feature", "properties": { "name": "H Mart Niles" }, "geometry": { "type": "Point", "coordinates": [ -87.80118, 42.02205 ] } },
{ "type": "Feature", "properties": { "name": "H Mart Schaumburg II" }, "geometry": { "type": "Point", "coordinates": [ -88.06911, 42.05213 ] } },
{ "type": "Feature", "properties": { "name": "H Mart Urbana" }, "geometry": { "type": "Point", "coordinates": [ -88.20585, 40.11446 ] } },
{ "type": "Feature", "properties": { "name": "H Mart Brookline" }, "geometry": { "type": "Point", "coordinates": [ -71.10821, 42.34616 ] } },
{ "type": "Feature", "properties": { "name": "H Mart Burlington" }, "geometry": { "type": "Point", "coordinates": [ -71.20983, 42.47241 ] } },
{ "type": "Feature", "properties": { "name": "H Mart Cambridge" }, "geometry": { "type": "Point", "coordinates": [ -71.10242, 42.36523 ] } },
{ "type": "Feature", "properties": { "name": "H Mart Quincy" }, "geometry": { "type": "Point", "coordinates": [ -70.9843, 42.23795 ] } },
{ "type": "Feature", "properties": { "name": "H Mart Somerville" }, "geometry": { "type": "Point", "coordinates": [ -71.12209, 42.39508 ] } },
{ "type": "Feature", "properties": { "name": "H Mart Catonsville" }, "geometry": { "type": "Point", "coordinates": [ -76.75531, 39.28246 ] } },
{ "type": "Feature", "properties": { "name": "H Mart Ellicott City" }, "geometry": { "type": "Point", "coordinates": [ -76.81653, 39.2809 ] } },
{ "type": "Feature", "properties": { "name": "H Mart Frederick" }, "geometry": { "type": "Point", "coordinates": [ -77.44668, 39.4188 ] } },
{ "type": "Feature", "properties": { "name": "H Mart Gaithersburg" }, "geometry": { "type": "Point", "coordinates": [ -77.19736, 39.15431 ] } },
{ "type": "Feature", "properties": { "name": "H Mart Wheaton" }, "geometry": { "type": "Point", "coordinates": [ -77.0515, 39.05184 ] } },
{ "type": "Feature", "properties": { "name": "H Mart Troy" }, "geometry": { "type": "Point", "coordinates": [ -83.08968, 42.56417 ] } },
{ "type": "Feature", "properties": { "name": "H Mart Cary" }, "geometry": { "type": "Point", "coordinates": [ -78.84883, 35.78887 ] } },
{ "type": "Feature", "properties": { "name": "H Mart American Dream" }, "geometry": { "type": "Point", "coordinates": [ -74.07205, 40.80861 ] } },
{ "type": "Feature", "properties": { "name": "H Mart Cherry Hill" }, "geometry": { "type": "Point", "coordinates": [ -75.03073, 39.93484 ] } },
{ "type": "Feature", "properties": { "name": "H Mart Edison" }, "geometry": { "type": "Point", "coordinates": [ -74.40653, 40.51244 ] } },
{ "type": "Feature", "properties": { "name": "H Mart Fort Lee" }, "geometry": { "type": "Point", "coordinates": [ -73.97014, 40.85093 ] } },
{ "type": "Feature", "properties": { "name": "H Mart Fort Lee Fresh" }, "geometry": { "type": "Point", "coordinates": [ -73.98024, 40.84496 ] } },
{ "type": "Feature", "properties": { "name": "H Mart Leonia" }, "geometry": { "type": "Point", "coordinates": [ -73.98778, 40.86147 ] } },
{ "type": "Feature", "properties": { "name": "H Mart Little Ferry" }, "geometry": { "type": "Point", "coordinates": [ -74.03333, 40.85506 ] } },
{ "type": "Feature", "properties": { "name": "H Mart Paramus" }, "geometry": { "type": "Point", "coordinates": [ -74.07212, 40.94726 ] } },
{ "type": "Feature", "properties": { "name": "H Mart Ridgefield" }, "geometry": { "type": "Point", "coordinates": [ -74.01041, 40.82424 ] } },
{ "type": "Feature", "properties": { "name": "H Mart Las Vegas" }, "geometry": { "type": "Point", "coordinates": [ -115.20575, 36.15908 ] } },
{ "type": "Feature", "properties": { "name": "H Mart Bayside" }, "geometry": { "type": "Point", "coordinates": [ -73.77708, 40.76844 ] } },
{ "type": "Feature", "properties": { "name": "H Mart Great Neck" }, "geometry": { "type": "Point", "coordinates": [ -73.73273, 40.775 ] } },
{ "type": "Feature", "properties": { "name": "H Mart Hartsdale" }, "geometry": { "type": "Point", "coordinates": [ -73.79008, 41.0285 ] } },
{ "type": "Feature", "properties": { "name": "H Mart Jericho" }, "geometry": { "type": "Point", "coordinates": [ -73.53377, 40.78105 ] } },
{ "type": "Feature", "properties": { "name": "H Mart Long Island City" }, "geometry": { "type": "Point", "coordinates": [ -73.93709, 40.74904 ] } },
{ "type": "Feature", "properties": { "name": "H Mart Northern 144" }, "geometry": { "type": "Point", "coordinates": [ -73.81493, 40.76525 ] } },
{ "type": "Feature", "properties": { "name": "H Mart Northern 156" }, "geometry": { "type": "Point", "coordinates": [ -73.80894, 40.76293 ] } },
{ "type": "Feature", "properties": { "name": "H Mart Roosevelt" }, "geometry": { "type": "Point", "coordinates": [ -73.82494, 40.76118 ] } },
{ "type": "Feature", "properties": { "name": "H Mart Union" }, "geometry": { "type": "Point", "coordinates": [ -73.8268, 40.77194 ] } },
{ "type": "Feature", "properties": { "name": "H Mart Williston Park" }, "geometry": { "type": "Point", "coordinates": [ -73.65631, 40.75438 ] } },
{ "type": "Feature", "properties": { "name": "H Mart Woodside" }, "geometry": { "type": "Point", "coordinates": [ -73.90487, 40.74507 ] } },
{ "type": "Feature", "properties": { "name": "H Mart Yonkers" }, "geometry": { "type": "Point", "coordinates": [ -73.84315, 40.95974 ] } },
{ "type": "Feature", "properties": { "name": "H Mart Elkins Park" }, "geometry": { "type": "Point", "coordinates": [ -75.12695, 40.07734 ] } },
{ "type": "Feature", "properties": { "name": "H Mart Levittown" }, "geometry": { "type": "Point", "coordinates": [ -74.87542, 40.16535 ] } },
{ "type": "Feature", "properties": { "name": "H Mart Philadelphia" }, "geometry": { "type": "Point", "coordinates": [ -75.11741, 40.04485 ] } },
{ "type": "Feature", "properties": { "name": "H Mart Upper Darby" }, "geometry": { "type": "Point", "coordinates": [ -75.26284, 39.96118 ] } },
{ "type": "Feature", "properties": { "name": "H Mart Austin" }, "geometry": { "type": "Point", "coordinates": [ -97.79899, 30.47963 ] } },
{ "type": "Feature", "properties": { "name": "H Mart Carrollton" }, "geometry": { "type": "Point", "coordinates": [ -96.91271, 32.98586 ] } },
{ "type": "Feature", "properties": { "name": "H Mart Dallas Harry Hines" }, "geometry": { "type": "Point", "coordinates": [ -96.89434, 32.89586 ] } },
{ "type": "Feature", "properties": { "name": "H Mart Houston Bellaire" }, "geometry": { "type": "Point", "coordinates": [ -95.55399, 29.70653 ] } },
{ "type": "Feature", "properties": { "name": "H Mart Houston Blalock" }, "geometry": { "type": "Point", "coordinates": [ -95.52078, 29.79248 ] } },
{ "type": "Feature", "properties": { "name": "H Mart Katy" }, "geometry": { "type": "Point", "coordinates": [ -95.77342, 29.79333 ] } },
{ "type": "Feature", "properties": { "name": "H Mart Plano" }, "geometry": { "type": "Point", "coordinates": [ -96.6964, 33.0389 ] } },
{ "type": "Feature", "properties": { "name": "H Mart Annandale" }, "geometry": { "type": "Point", "coordinates": [ -77.21331, 38.82511 ] } },
{ "type": "Feature", "properties": { "name": "H Mart Burke" }, "geometry": { "type": "Point", "coordinates": [ -77.27217, 38.79562 ] } },
{ "type": "Feature", "properties": { "name": "H Mart Centreville" }, "geometry": { "type": "Point", "coordinates": [ -77.42714, 38.83785 ] } },
{ "type": "Feature", "properties": { "name": "H Mart Fairfax" }, "geometry": { "type": "Point", "coordinates": [ -77.33192, 38.85781 ] } },
{ "type": "Feature", "properties": { "name": "H Mart Falls Church" }, "geometry": { "type": "Point", "coordinates": [ -77.22506, 38.87445 ] } },
{ "type": "Feature", "properties": { "name": "H Mart Herndon" }, "geometry": { "type": "Point", "coordinates": [ -77.39969, 38.96235 ] } },
{ "type": "Feature", "properties": { "name": "H Mart Manassas" }, "geometry": { "type": "Point", "coordinates": [ -77.45939, 38.76301 ] } }
]
}
