{
"type": "FeatureCollection",
"features": [
{ "type": "Feature", "properties": { "state": "CA" }, "geometry": { "type": "Polygon", "coordinates": [ [ [ -124.212, 41.998 ], [ -124.063, 41.44 ], [ -124.118, 40.989 ], [ -124.41, 40.438 ], [ -123.852, 39.832 ], [ -123.711, 38.913 ], [ -123.004, 38.297 ], [ -122.94, 38.032 ], [ -122.163, 37.668 ], [ -122.517, 37.521 ], [ -122.397, 37.187 ], [ -121.792, 36.815 ], [ -121.97, 36.583 ], [ -120.897, 35.248 ], [ -120.636, 35.124 ], [ -120.646, 34.581 ], [ -120.451, 34.447 ], [ -119.617, 34.421 ], [ -119.11, 34.095 ], [ -118.52, 34.028 ], [ -117.446, 33.269 ], [ -117.125, 32.534 ], [ -114.72, 32.719 ], [ -114.707, 33.377 ], [ -114.535, 33.928 ], [ -114.139, 34.26 ], [ -114.633, 35.002 ], [ -116.488, 36.459 ], [ -117.681, 37.353 ], [ -120.001, 39.0 ], [ -119.999, 41.995 ], [ -122.501, 42.008 ], [ -124.212, 41.998 ] ] ] } },
{ "type": "Feature", "properties": { "state": "WI" }, "geometry": { "type": "Polygon", "coordinates": [ [ [ -92.015, 46.706 ], [ -92.292, 46.663 ], [ -92.294, 46.074 ], [ -92.87, 45.715 ], [ -92.647, 45.438 ], [ -92.805, 44.768 ], [ -91.441, 44.002 ], [ -91.218, 43.501 ], [ -91.138, 42.904 ], [ -90.643, 42.508 ], [ -87.8, 42.492 ], [ -87.889, 43.308 ], [ -87.265, 45.081 ], [ -87.59, 45.095 ], [ -87.863, 45.353 ], [ -87.781, 45.674 ], [ -88.115, 45.922 ], [ -90.12, 46.337 ], [ -90.418, 46.566 ], [ -91.168, 46.845 ], [ -92.015, 46.706 ] ] ] } },
{ "type": "Feature", "properties": { "state": "ID" }, "geometry": { "type": "Polygon", "coordinates": [ [ [ -116.916, 45.995 ], [ -116.464, 45.616 ], [ -117.243, 44.391 ], [ -116.896, 44.154 ], [ -117.024, 43.824 ], [ -117.026, 42.0 ], [ -114.042, 41.994 ], [ -111.047, 42.002 ], [ -111.049, 44.474 ], [ -111.563, 44.555 ], [ -113.007, 44.472 ], [ -113.972, 45.701 ], [ -114.506, 45.559 ], [ -114.321, 46.647 ], [ -114.943, 46.868 ], [ -115.71, 47.418 ], [ -116.049, 48.0 ], [ -116.049, 49.001 ], [ -117.032, 48.999 ], [ -117.036, 46.41 ], [ -116.916, 45.995 ] ] ] } },
{ "type": "Feature", "properties": { "state": "MN" }, "geometry": { "type": "Polygon", "coordinates": [ [ [ -97.229, 49.001 ], [ -97.147, 48.169 ], [ -96.854, 47.572 ], [ -96.791, 46.637 ], [ -96.564, 45.935 ], [ -96.826, 45.654 ], [ -96.458, 45.308 ], [ -96.453, 43.5 ], [ -93.971, 43.5 ], [ -91.218, 43.501 ], [ -91.441, 44.002 ], [ -92.805, 44.768 ], [ -92.647, 45.438 ], [ -92.87, 45.715 ], [ -92.294, 46.074 ], [ -92.292, 46.663 ], [ -92.015, 46.706 ], [ -90.868, 47.557 ], [ -89.974, 47.831 ], [ -90.136, 48.112 ], [ -90.844, 48.244 ], [ -91.543, 48.053 ], [ -92.955, 48.631 ], [ -93.468, 48.546 ], [ -94.694, 48.789 ], [ -95.154, 48.999 ], [ -97.229, 49.001 ] ] ] } },
{ "type": "Feature", "properties": { "state": "IA" }, "geometry": { "type": "Polygon", "coordinates": [ [ [ -96.453, 43.5 ], [ -96.622, 42.779 ], [ -96.446, 42.491 ], [ -95.923, 41.456 ], [ -95.766, 40.585 ], [ -94.534, 40.571 ], [ -91.729, 40.614 ], [ -91.419, 40.378 ], [ -90.952, 40.954 ], [ -91.028, 41.424 ], [ -90.34, 41.599 ], [ -90.161, 42.106 ], [ -90.643, 42.508 ], [ -91.138, 42.904 ], [ -91.218, 43.501 ], [ -93.971, 43.5 ], [ -96.453, 43.5 ] ] ] } },
{ "type": "Feature", "properties": { "state": "MO" }, "geometry": { "type": "Polygon", "coordinates": [ [ [ -95.766, 40.585 ], [ -95.308, 40.0 ], [ -95.114, 39.554 ], [ -94.607, 39.113 ], [ -94.618, 36.999 ], [ -94.618, 36.499 ], [ -92.35, 36.498 ], [ -90.154, 36.495 ], [ -89.733, 36.001 ], [ -89.539, 36.498 ], [ -89.165, 36.662 ], [ -89.133, 36.982 ], [ -89.359, 37.043 ], [ -89.522, 37.696 ], [ -90.219, 38.094 ], [ -90.373, 38.323 ], [ -90.113, 38.849 ], [ -90.657, 38.92 ], [ -90.73, 39.256 ], [ -91.368, 39.729 ], [ -91.419, 40.378 ], [ -91.729, 40.614 ], [ -94.534, 40.571 ], [ -95.766, 40.585 ] ] ] } },
{ "type": "Feature", "properties": { "state": "MD" }, "geometry": { "type": "Polygon", "coordinates": [ [ [ -79.477, 39.721 ], [ -79.091, 39.472 ], [ -78.082, 39.671 ], [ -77.72, 39.321 ], [ -77.12, 38.934 ], [ -76.909, 38.893 ], [ -77.039, 38.792 ], [ -77.13, 38.635 ], [ -76.864, 38.269 ], [ -75.889, 38.241 ], [ -75.67, 37.951 ], [ -75.242, 38.027 ], [ -75.049, 38.451 ], [ -75.694, 38.46 ], [ -75.789, 39.722 ], [ -77.469, 39.72 ], [ -79.477, 39.721 ] ] ] } },
{ "type": "Feature", "properties": { "state": "OR" }, "geometry": { "type": "Polygon", "coordinates": [ [ [ -123.548, 46.259 ], [ -123.959, 46.142 ], [ -123.975, 45.145 ], [ -124.234, 43.557 ], [ -124.552, 42.841 ], [ -124.212, 41.998 ], [ -122.501, 42.008 ], [ -119.999, 41.995 ], [ -117.026, 42.0 ], [ -117.024, 43.824 ], [ -116.896, 44.154 ], [ -117.243, 44.391 ], [ -116.464, 45.616 ], [ -116.916, 45.995 ], [ -118.987, 46.0 ], [ -119.126, 45.933 ], [ -121.085, 45.648 ], [ -121.811, 45.707 ], [ -122.263, 45.544 ], [ -122.775, 45.68 ], [ -122.814, 45.961 ], [ -123.548, 46.259 ] ] ] } },
{ "type": "Feature", "properties": { "state": "MI" }, "geometry": { "type": "MultiPolygon", "coordinates": [ [ [ [ -83.454, 41.733 ], [ -82.859, 42.542 ], [ -82.51, 42.637 ], [ -82.416, 43.006 ], [ -82.634, 43.831 ], [ -82.929, 44.069 ], [ -83.948, 43.735 ], [ -83.337, 44.333 ], [ -83.266, 45.027 ], [ -83.385, 45.274 ], [ -84.719, 45.778 ], [ -85.12, 45.569 ], [ -85.381, 45.046 ], [ -86.059, 44.911 ], [ -86.515, 44.058 ], [ -86.541, 43.645 ], [ -86.208, 42.763 ], [ -86.356, 42.254 ], [ -86.825, 41.76 ], [ -84.806, 41.696 ], [ -83.454, 41.733 ] ] ], [ [ [ -90.418, 46.566 ], [ -90.12, 46.337 ], [ -88.115, 45.922 ], [ -87.781, 45.674 ], [ -87.863, 45.353 ], [ -87.59, 45.095 ], [ -87.172, 45.662 ], [ -85.541, 46.08 ], [ -84.633, 45.951 ], [ -84.08, 45.971 ], [ -84.118, 46.518 ], [ -84.969, 46.476 ], [ -85.028, 46.675 ], [ -86.138, 46.673 ], [ -86.558, 46.487 ], [ -87.367, 46.507 ], [ -87.595, 46.783 ], [ -88.144, 46.967 ], [ -88.218, 47.449 ], [ -89.415, 46.844 ], [ -90.418, 46.566 ] ] ] ] } },
{ "type": "Feature", "properties": { "state": "MT" }, "geometry": { "type": "Polygon", "coordinates": [ [ [ -116.049, 49.001 ], [ -116.049, 48.0 ], [ -115.71, 47.418 ], [ -114.943, 46.868 ], [ -114.321, 46.647 ], [ -114.506, 45.559 ], [ -113.972, 45.701 ], [ -113.007, 44.472 ], [ -111.563, 44.555 ], [ -111.049, 44.474 ], [ -111.044, 45.001 ], [ -108.621, 45.0 ], [ -106.264, 44.994 ], [ -104.058, 44.997 ], [ -104.045, 45.945 ], [ -104.049, 49.0 ], [ -106.051, 48.999 ], [ -109.001, 48.999 ], [ -111.501, 48.997 ], [ -113.693, 48.998 ], [ -116.049, 49.001 ] ] ] } },
{ "type": "Feature", "properties": { "state": "UT" }, "geometry": { "type": "Polygon", "coordinates": [ [ [ -114.042, 41.994 ], [ -114.049, 39.006 ], [ -114.051, 37.0 ], [ -111.278, 37.0 ], [ -109.045, 36.999 ], [ -109.06, 38.275 ], [ -109.05, 41.001 ], [ -111.047, 40.998 ], [ -111.047, 42.002 ], [ -114.042, 41.994 ] ] ] } },
{ "type": "Feature", "properties": { "state": "VA" }, "geometry": { "type": "Polygon", "coordinates": [ [ [ -81.968, 37.538 ], [ -82.726, 37.112 ], [ -83.136, 36.743 ], [ -83.675, 36.601 ], [ -81.678, 36.588 ], [ -80.295, 36.544 ], [ -78.51, 36.541 ], [ -75.867, 36.551 ], [ -76.268, 36.965 ], [ -76.237, 37.889 ], [ -77.323, 38.467 ], [ -77.13, 38.635 ], [ -77.039, 38.792 ], [ -77.12, 38.934 ], [ -77.72, 39.321 ], [ -78.347, 39.466 ], [ -78.414, 39.158 ], [ -78.999, 38.84 ], [ -79.298, 38.416 ], [ -79.788, 38.273 ], [ -80.292, 37.537 ], [ -80.919, 37.306 ], [ -81.561, 37.207 ], [ -81.968, 37.538 ] ] ] } },
{ "type": "Feature", "properties": { "state": "IL" }, "geometry": { "type": "Polygon", "coordinates": [ [ [ -91.419, 40.378 ], [ -91.368, 39.729 ], [ -90.73, 39.256 ], [ -90.657, 38.92 ], [ -90.113, 38.849 ], [ -90.373, 38.323 ], [ -90.219, 38.094 ], [ -89.522, 37.696 ], [ -89.359, 37.043 ], [ -89.133, 36.982 ], [ -88.932, 37.228 ], [ -88.062, 37.488 ], [ -88.028, 37.799 ], [ -88.031, 38.031 ], [ -87.499, 38.758 ], [ -87.532, 39.348 ], [ -87.524, 41.708 ], [ -87.8, 42.492 ], [ -90.643, 42.508 ], [ -90.161, 42.106 ], [ -90.34, 41.599 ], [ -91.028, 41.424 ], [ -90.952, 40.954 ], [ -91.419, 40.378 ] ] ] } },
{ "type": "Feature", "properties": { "state": "TX" }, "geometry": { "type": "Polygon", "coordinates": [ [ [ -103.002, 36.5 ], [ -103.044, 34.079 ], [ -103.064, 32.001 ], [ -104.644, 32.0 ], [ -106.618, 32.0 ], [ -106.528, 31.783 ], [ -105.315, 30.817 ], [ -105.001, 30.673 ], [ -104.703, 30.212 ], [ -104.54, 29.676 ], [ -104.144, 29.383 ], [ -103.281, 28.982 ], [ -102.871, 29.242 ], [ -102.677, 29.738 ], [ -102.301, 29.878 ], [ -101.401, 29.738 ], [ -100.675, 29.1 ], [ -100.268, 28.25 ], [ -99.557, 27.614 ], [ -99.111, 26.426 ], [ -98.197, 26.056 ], [ -97.795, 26.055 ], [ -97.423, 25.84 ], [ -97.146, 25.971 ], [ -97.379, 27.06 ], [ -97.296, 27.427 ], [ -96.886, 28.031 ], [ -96.194, 28.502 ], [ -95.382, 28.866 ], [ -94.595, 29.468 ], [ -93.838, 29.691 ], [ -93.704, 30.054 ], [ -93.729, 30.545 ], [ -93.535, 31.186 ], [ -94.042, 31.992 ], [ -94.043, 33.019 ], [ -94.043, 33.551 ], [ -94.486, 33.638 ], [ -95.226, 33.962 ], [ -96.152, 33.832 ], [ -96.363, 33.694 ], [ -96.952, 33.945 ], [ -97.866, 33.849 ], [ -98.099, 34.104 ], [ -99.19, 34.214 ], [ -100.0, 34.561 ], [ -100.0, 36.5 ], [ -103.002, 36.5 ] ] ] } },
{ "type": "Feature", "properties": { "state": "LA" }, "geometry": { "type": "Polygon", "coordinates": [ [ [ -94.043, 33.019 ], [ -94.042, 31.992 ], [ -93.535, 31.186 ], [ -93.729, 30.545 ], [ -93.704, 30.054 ], [ -93.838, 29.691 ], [ -93.177, 29.77 ], [ -92.323, 29.531 ], [ -91.394, 29.497 ], [ -91.279, 29.248 ], [ -90.868, 29.056 ], [ -90.224, 29.085 ], [ -89.482, 29.406 ], [ -89.186, 30.064 ], [ -89.525, 30.181 ], [ -89.836, 30.727 ], [ -89.728, 31.002 ], [ -91.56, 31.05 ], [ -91.36, 31.799 ], [ -91.035, 32.101 ], [ -91.166, 33.004 ], [ -94.043, 33.019 ] ] ] } },
{ "type": "Feature", "properties": { "state": "FL" }, "geometry": { "type": "Polygon", "coordinates": [ [ [ -85.002, 31.001 ], [ -87.599, 30.997 ], [ -87.4, 30.657 ], [ -87.518, 30.28 ], [ -86.633, 30.396 ], [ -86.0, 30.271 ], [ -85.385, 29.921 ], [ -85.045, 29.587 ], [ -84.063, 30.101 ], [ -83.679, 29.919 ], [ -83.17, 29.29 ], [ -82.824, 29.099 ], [ -82.657, 28.545 ], [ -82.86, 28.174 ], [ -82.692, 27.437 ], [ -82.265, 26.757 ], [ -81.924, 26.437 ], [ -81.727, 25.907 ], [ -81.384, 25.777 ], [ -81.08, 25.119 ], [ -80.358, 25.153 ], [ -80.301, 25.613 ], [ -80.11, 25.818 ], [ -80.046, 26.859 ], [ -80.548, 28.049 ], [ -80.584, 28.598 ], [ -80.966, 29.148 ], [ -81.257, 29.785 ], [ -81.444, 30.71 ], [ -81.943, 30.827 ], [ -82.219, 30.564 ], [ -84.865, 30.712 ], [ -85.002, 31.001 ] ] ] } },
{ "type": "Feature", "properties": { "state": "KY" }, "geometry": { "type": "Polygon", "coordinates": [ [ [ -89.133, 36.982 ], [ -89.165, 36.662 ], [ -89.539, 36.498 ], [ -88.05, 36.5 ], [ -87.853, 36.633 ], [ -86.508, 36.652 ], [ -84.785, 36.603 ], [ -83.675, 36.601 ], [ -83.136, 36.743 ], [ -82.726, 37.112 ], [ -81.968, 37.538 ], [ -82.296, 37.686 ], [ -82.626, 38.135 ], [ -82.594, 38.422 ], [ -82.889, 38.756 ], [ -83.287, 38.599 ], [ -84.213, 38.806 ], [ -84.462, 39.122 ], [ -84.82, 39.105 ], [ -84.786, 38.882 ], [ -85.816, 38.283 ], [ -86.722, 37.893 ], [ -87.419, 37.945 ], [ -88.028, 37.799 ], [ -88.062, 37.488 ], [ -88.932, 37.228 ], [ -89.133, 36.982 ] ] ] } },
{ "type": "Feature", "properties": { "state": "TN" }, "geometry": { "type": "Polygon", "coordinates": [ [ [ -89.733, 36.001 ], [ -90.309, 34.996 ], [ -88.2, 34.996 ], [ -85.605, 34.985 ], [ -84.322, 34.988 ], [ -84.283, 35.227 ], [ -83.772, 35.562 ], [ -82.978, 35.783 ], [ -82.779, 35.993 ], [ -82.029, 36.124 ], [ -81.678, 36.588 ], [ -83.675, 36.601 ], [ -84.785, 36.603 ], [ -86.508, 36.652 ], [ -87.853, 36.633 ], [ -88.05, 36.5 ], [ -89.539, 36.498 ], [ -89.733, 36.001 ] ] ] } },
{ "type": "Feature", "properties": { "state": "NY" }, "geometry": { "type": "Polygon", "coordinates": [ [ [ -79.762, 42.27 ], [ -79.761, 41.999 ], [ -77.832, 41.999 ], [ -75.341, 41.993 ], [ -74.982, 41.496 ], [ -74.695, 41.357 ], [ -73.894, 40.997 ], [ -74.261, 40.502 ], [ -73.013, 40.68 ], [ -73.11, 40.972 ], [ -73.657, 40.985 ], [ -73.487, 42.05 ], [ -73.265, 42.746 ], [ -73.242, 43.535 ], [ -73.437, 44.043 ], [ -73.294, 44.441 ], [ -73.343, 45.011 ], [ -74.835, 45.015 ], [ -75.256, 44.858 ], [ -76.287, 44.204 ], [ -76.418, 43.521 ], [ -76.952, 43.271 ], [ -78.547, 43.37 ], [ -79.07, 43.262 ], [ -78.851, 42.792 ], [ -79.762, 42.27 ] ] ] } },
{ "type": "Feature", "properties": { "state": "GA" }, "geometry": { "type": "Polygon", "coordinates": [ [ [ -85.605, 34.985 ], [ -85.184, 32.861 ], [ -84.892, 32.263 ], [ -85.142, 31.839 ], [ -85.002, 31.001 ], [ -84.865, 30.712 ], [ -82.219, 30.564 ], [ -81.943, 30.827 ], [ -81.444, 30.71 ], [ -81.131, 31.723 ], [ -80.886, 32.035 ], [ -81.113, 32.113 ], [ -81.502, 33.015 ], [ -82.557, 33.945 ], [ -82.874, 34.472 ], [ -83.339, 34.682 ], [ -83.109, 35.001 ], [ -84.322, 34.988 ], [ -85.605, 34.985 ] ] ] } },
{ "type": "Feature", "properties": { "state": "HI" }, "geometry": { "type": "Polygon", "coordinates": [ [ [ -156.05, 19.78 ], [ -155.914, 19.099 ], [ -155.505, 19.138 ], [ -154.877, 19.433 ], [ -155.27, 20.015 ], [ -155.825, 20.026 ], [ -156.05, 19.78 ] ] ] } },
{ "type": "Feature", "properties": { "state": "DE" }, "geometry": { "type": "Polygon", "coordinates": [ [ [ -75.415, 39.802 ], [ -75.789, 39.722 ], [ -75.694, 38.46 ], [ -75.049, 38.451 ], [ -75.528, 39.498 ], [ -75.415, 39.802 ] ] ] } },
{ "type": "Feature", "properties": { "state": "WA" }, "geometry": { "type": "Polygon", "coordinates": [ [ [ -117.032, 48.999 ], [ -118.837, 49.0 ], [ -122.758, 49.002 ], [ -122.643, 48.588 ], [ -122.76, 48.143 ], [ -124.051, 48.178 ], [ -124.653, 48.391 ], [ -124.672, 47.964 ], [ -124.412, 47.691 ], [ -124.081, 46.735 ], [ -124.081, 46.267 ], [ -123.548, 46.259 ], [ -122.814, 45.961 ], [ -122.775, 45.68 ], [ -122.263, 45.544 ], [ -121.811, 45.707 ], [ -121.085, 45.648 ], [ -119.126, 45.933 ], [ -118.987, 46.0 ], [ -116.916, 45.995 ], [ -117.036, 46.41 ], [ -117.032, 48.999 ] ] ] } },
{ "type": "Feature", "properties": { "state": "OK" }, "geometry": { "type": "Polygon", "coordinates": [ [ [ -103.002, 37.0 ], [ -103.002, 36.5 ], [ -100.0, 36.5 ], [ -100.0, 34.561 ], [ -99.19, 34.214 ], [ -98.099, 34.104 ], [ -97.866, 33.849 ], [ -96.952, 33.945 ], [ -96.363, 33.694 ], [ -96.152, 33.832 ], [ -95.226, 33.962 ], [ -94.486, 33.638 ], [ -94.432, 35.37 ], [ -94.618, 36.499 ], [ -94.618, 36.999 ], [ -97.462, 36.999 ], [ -99.129, 36.999 ], [ -102.042, 36.993 ], [ -103.002, 37.0 ] ] ] } },
{ "type": "Feature", "properties": { "state": "WV" }, "geometry": { "type": "Polygon", "coordinates": [ [ [ -82.594, 38.422 ], [ -82.626, 38.135 ], [ -82.296, 37.686 ], [ -81.968, 37.538 ], [ -81.561, 37.207 ], [ -80.919, 37.306 ], [ -80.292, 37.537 ], [ -79.788, 38.273 ], [ -79.298, 38.416 ], [ -78.999, 38.84 ], [ -78.414, 39.158 ], [ -78.347, 39.466 ], [ -77.72, 39.321 ], [ -78.082, 39.671 ], [ -79.091, 39.472 ], [ -79.477, 39.721 ], [ -80.519, 39.721 ], [ -80.519, 40.639 ], [ -80.83, 39.712 ], [ -81.129, 39.449 ], [ -81.678, 39.274 ], [ -81.898, 38.93 ], [ -82.594, 38.422 ] ] ] } },
{ "type": "Feature", "properties": { "state": "AK" }, "geometry": { "type": "MultiPolygon", "coordinates": [ [ [ [ -133.935, 55.921 ], [ -133.789, 55.458 ], [ -133.232, 55.199 ], [ -132.866, 54.7 ], [ -131.958, 54.791 ], [ -131.977, 55.181 ], [ -132.471, 55.782 ], [ -133.197, 56.333 ], [ -133.656, 56.327 ], [ -133.935, 55.921 ] ] ], [ [ [ -134.393, 56.864 ], [ -133.822, 56.392 ], [ -132.671, 56.543 ], [ -133.105, 57.006 ], [ -133.888, 57.098 ], [ -134.393, 56.864 ] ] ], [ [ [ -134.961, 58.404 ], [ -134.556, 57.407 ], [ -133.808, 57.61 ], [ -134.184, 58.077 ], [ -134.961, 58.404 ] ] ], [ [ [ -136.563, 58.035 ], [ -135.551, 56.841 ], [ -134.635, 56.266 ], [ -134.951, 58.037 ], [ -135.712, 58.232 ], [ -136.387, 58.252 ], [ -136.563, 58.035 ] ] ], [ [ [ -154.78, 57.366 ], [ -154.017, 56.689 ], [ -152.901, 57.132 ], [ -152.44, 57.727 ], [ -152.64, 58.47 ], [ -154.78, 57.366 ] ] ], [ [ [ -167.431, 60.197 ], [ -166.362, 59.839 ], [ -165.582, 59.908 ], [ -165.68, 60.292 ], [ -166.372, 60.355 ], [ -167.431, 60.197 ] ] ], [ [ [ -167.791, 53.336 ], [ -166.749, 53.441 ], [ -166.098, 53.827 ], [ -166.645, 54.014 ], [ -167.279, 53.479 ], [ -167.791, 53.336 ] ] ], [ [ [ -168.129, 65.656 ], [ -166.432, 64.883 ], [ -166.237, 64.584 ], [ -164.808, 64.449 ], [ -163.686, 64.569 ], [ -163.133, 64.382 ], [ -161.377, 64.773 ], [ -160.793, 64.619 ], [ -160.962, 64.221 ], [ -160.783, 63.753 ], [ -161.191, 63.49 ], [ -162.352, 63.454 ], [ -163.054, 63.058 ], [ -164.067, 63.262 ], [ -164.607, 63.113 ], [ -164.962, 62.658 ], [ -165.672, 62.14 ], [ -165.64, 61.138 ], [ -165.058, 61.06 ], [ -165.363, 60.507 ], [ -164.132, 59.991 ], [ -163.458, 59.81 ], [ -162.228, 60.056 ], [ -161.703, 59.491 ], [ -162.049, 59.254 ], [ -161.752, 58.552 ], [ -160.731, 58.921 ], [ -159.41, 58.774 ], [ -159.063, 58.423 ], [ -157.117, 58.868 ], [ -157.481, 58.481 ], [ -157.679, 57.564 ], [ -158.973, 56.842 ], [ -160.386, 56.28 ], [ -160.59, 55.983 ], [ -161.808, 55.892 ], [ -162.9, 55.252 ], [ -164.577, 54.825 ], [ -164.038, 54.625 ], [ -161.957, 55.112 ], [ -161.686, 55.408 ], [ -160.521, 55.474 ], [ -159.847, 55.803 ], [ -158.431, 55.994 ], [ -158.49, 56.342 ], [ -157.531, 56.754 ], [ -156.551, 56.985 ], [ -156.362, 57.4 ], [ -155.354, 57.715 ], [ -155.119, 57.954 ], [ -154.222, 58.133 ], [ -153.851, 58.612 ], [ -153.267, 58.867 ], [ -154.181, 59.123 ], [ -153.542, 59.63 ], [ -152.701, 59.92 ], [ -152.331, 60.474 ], [ -150.939, 61.21 ], [ -150.402, 61.036 ], [ -151.41, 60.711 ], [ -151.422, 60.213 ], [ -151.869, 59.769 ], [ -151.662, 59.09 ], [ -150.43, 59.343 ], [ -149.919, 59.692 ], [ -149.123, 59.969 ], [ -147.508, 59.842 ], [ -146.916, 60.291 ], [ -145.989, 60.387 ], [ -145.089, 60.32 ], [ -143.897, 59.986 ], [ -142.745, 60.094 ], [ -140.243, 59.688 ], [ -138.224, 59.032 ], [ -137.568, 58.588 ], [ -136.592, 58.218 ], [ -135.728, 58.397 ], [ -135.104, 58.449 ], [ -134.147, 58.199 ], [ -133.52, 57.531 ], [ -133.545, 57.243 ], [ -132.938, 57.048 ], [ -132.451, 56.564 ], [ -132.977, 56.44 ], [ -131.844, 55.457 ], [ -131.622, 54.947 ], [ -130.637, 54.778 ], [ -130.002, 55.265 ], [ -130.103, 56.117 ], [ -131.086, 56.407 ], [ -132.126, 56.875 ], [ -133.38, 58.428 ], [ -134.962, 59.28 ], [ -135.477, 59.8 ], [ -136.351, 59.599 ], [ -136.582, 59.165 ], [ -137.447, 58.91 ], [ -137.604, 59.243 ], [ -139.698, 60.34 ], [ -139.989, 60.185 ], [ -141.002, 60.306 ], [ -141.002, 61.904 ], [ -141.002, 65.839 ], [ -141.003, 68.498 ], [ -141.003, 69.646 ], [ -143.282, 70.151 ], [ -144.672, 69.967 ], [ -146.508, 70.186 ], [ -147.162, 70.156 ], [ -149.462, 70.518 ], [ -151.175, 70.376 ], [ -152.192, 70.795 ], [ -153.238, 70.922 ], [ -154.572, 70.826 ], [ -155.061, 71.145 ], [ -156.81, 71.287 ], [ -158.032, 70.832 ], [ -159.648, 70.794 ], [ -161.288, 70.297 ], [ -161.879, 70.329 ], [ -162.989, 69.825 ], [ -163.245, 69.306 ], [ -164.253, 68.931 ], [ -166.224, 68.873 ], [ -166.601, 68.334 ], [ -164.051, 67.566 ], [ -163.702, 67.109 ], [ -162.635, 66.998 ], [ -161.485, 66.262 ], [ -161.838, 66.023 ], [ -163.695, 66.06 ], [ -163.604, 66.558 ], [ -165.407, 66.42 ], [ -168.129, 65.656 ] ] ], [ [ [ -171.837, 63.565 ], [ -169.535, 63.074 ], [ -170.345, 63.694 ], [ -171.837, 63.565 ] ] ] ] } },
{ "type": "Feature", "properties": { "state": "PA" }, "geometry": { "type": "Polygon", "coordinates": [ [ [ -80.519, 41.978 ], [ -80.519, 40.639 ], [ -80.519, 39.721 ], [ -79.477, 39.721 ], [ -77.469, 39.72 ], [ -75.789, 39.722 ], [ -75.415, 39.802 ], [ -74.722, 40.154 ], [ -75.187, 40.569 ], [ -75.133, 40.98 ], [ -74.695, 41.357 ], [ -74.982, 41.496 ], [ -75.341, 41.993 ], [ -77.832, 41.999 ], [ -79.761, 41.999 ], [ -79.762, 42.27 ], [ -80.519, 41.978 ] ] ] } },
{ "type": "Feature", "properties": { "state": "CO" }, "geometry": { "type": "Polygon", "coordinates": [ [ [ -109.05, 41.001 ], [ -109.06, 38.275 ], [ -109.045, 36.999 ], [ -106.006, 36.995 ], [ -103.002, 37.0 ], [ -102.042, 36.993 ], [ -102.052, 40.003 ], [ -102.052, 41.002 ], [ -104.053, 41.001 ], [ -106.191, 40.998 ], [ -109.05, 41.001 ] ] ] } },
{ "type": "Feature", "properties": { "state": "NC" }, "geometry": { "type": "Polygon", "coordinates": [ [ [ -81.678, 36.588 ], [ -82.029, 36.124 ], [ -82.779, 35.993 ], [ -82.978, 35.783 ], [ -83.772, 35.562 ], [ -84.283, 35.227 ], [ -84.322, 34.988 ], [ -83.109, 35.001 ], [ -82.411, 35.202 ], [ -81.043, 35.149 ], [ -80.797, 34.824 ], [ -79.675, 34.805 ], [ -78.541, 33.851 ], [ -77.96, 33.853 ], [ -77.635, 34.36 ], [ -77.137, 34.633 ], [ -76.536, 34.589 ], [ -76.137, 34.988 ], [ -75.534, 35.226 ], [ -75.459, 35.597 ], [ -75.867, 36.551 ], [ -78.51, 36.541 ], [ -80.295, 36.544 ], [ -81.678, 36.588 ] ] ] } },
{ "type": "Feature", "properties": { "state": "IN" }, "geometry": { "type": "Polygon", "coordinates": [ [ [ -87.524, 41.708 ], [ -87.532, 39.348 ], [ -87.499, 38.758 ], [ -88.031, 38.031 ], [ -88.028, 37.799 ], [ -87.419, 37.945 ], [ -86.722, 37.893 ], [ -85.816, 38.283 ], [ -84.786, 38.882 ], [ -84.82, 39.105 ], [ -84.806, 41.696 ], [ -86.825, 41.76 ], [ -87.524, 41.708 ] ] ] } },
{ "type": "Feature", "properties": { "state": "KS" }, "geometry": { "type": "Polygon", "coordinates": [ [ [ -102.052, 40.003 ], [ -102.042, 36.993 ], [ -99.129, 36.999 ], [ -97.462, 36.999 ], [ -94.618, 36.999 ], [ -94.607, 39.113 ], [ -95.114, 39.554 ], [ -95.308, 40.0 ], [ -98.076, 40.002 ], [ -99.813, 40.001 ], [ -102.052, 40.003 ] ] ] } },
{ "type": "Feature", "properties": { "state": "DC" }, "geometry": { "type": "Polygon", "coordinates": [ [ [ -77.12, 38.934 ], [ -77.039, 38.792 ], [ -76.909, 38.893 ], [ -77.12, 38.934 ] ] ] } },
{ "type": "Feature", "properties": { "state": "RI" }, "geometry": { "type": "Polygon", "coordinates": [ [ [ -71.861, 41.32 ], [ -71.121, 41.497 ], [ -71.381, 42.019 ], [ -71.799, 42.008 ], [ -71.861, 41.32 ] ] ] } },
{ "type": "Feature", "properties": { "state": "WY" }, "geometry": { "type": "Polygon", "coordinates": [ [ [ -104.058, 44.997 ], [ -106.264, 44.994 ], [ -108.621, 45.0 ], [ -111.044, 45.001 ], [ -111.049, 44.474 ], [ -111.047, 42.002 ], [ -111.047, 40.998 ], [ -109.05, 41.001 ], [ -106.191, 40.998 ], [ -104.053, 41.001 ], [ -104.053, 43.001 ], [ -104.058, 44.997 ] ] ] } },
{ "type": "Feature", "properties": { "state": "MS" }, "geometry": { "type": "Polygon", "coordinates": [ [ [ -91.166, 33.004 ], [ -91.035, 32.101 ], [ -91.36, 31.799 ], [ -91.56, 31.05 ], [ -89.728, 31.002 ], [ -89.836, 30.727 ], [ -89.525, 30.181 ], [ -88.894, 30.393 ], [ -88.395, 30.369 ], [ -88.469, 31.933 ], [ -88.098, 34.892 ], [ -88.2, 34.996 ], [ -90.309, 34.996 ], [ -90.895, 34.224 ], [ -91.216, 33.529 ], [ -91.166, 33.004 ] ] ] } },
{ "type": "Feature", "properties": { "state": "MA" }, "geometry": { "type": "Polygon", "coordinates": [ [ [ -73.265, 42.746 ], [ -73.487, 42.05 ], [ -71.799, 42.008 ], [ -71.381, 42.019 ], [ -71.121, 41.497 ], [ -70.322, 41.631 ], [ -70.975, 42.356 ], [ -70.655, 42.582 ], [ -70.817, 42.872 ], [ -71.294, 42.697 ], [ -72.459, 42.727 ], [ -73.265, 42.746 ] ] ] } },
{ "type": "Feature", "properties": { "state": "CT" }, "geometry": { "type": "Polygon", "coordinates": [ [ [ -73.487, 42.05 ], [ -73.657, 40.985 ], [ -72.936, 41.258 ], [ -71.861, 41.32 ], [ -71.799, 42.008 ], [ -73.487, 42.05 ] ] ] } },
{ "type": "Feature", "properties": { "state": "VT" }, "geometry": { "type": "Polygon", "coordinates": [ [ [ -73.343, 45.011 ], [ -73.294, 44.441 ], [ -73.437, 44.043 ], [ -73.242, 43.535 ], [ -73.265, 42.746 ], [ -72.459, 42.727 ], [ -72.379, 43.574 ], [ -72.046, 44.292 ], [ -71.58, 44.502 ], [ -71.501, 45.013 ], [ -73.343, 45.011 ] ] ] } },
{ "type": "Feature", "properties": { "state": "ME" }, "geometry": { "type": "Polygon", "coordinates": [ [ [ -71.084, 45.305 ], [ -70.984, 43.376 ], [ -70.704, 43.06 ], [ -70.168, 43.675 ], [ -68.439, 44.116 ], [ -68.126, 44.387 ], [ -67.293, 44.599 ], [ -66.95, 44.817 ], [ -67.417, 45.502 ], [ -67.803, 45.678 ], [ -67.79, 47.066 ], [ -68.362, 47.356 ], [ -68.901, 47.179 ], [ -69.22, 47.457 ], [ -69.997, 46.695 ], [ -70.291, 46.186 ], [ -70.259, 45.891 ], [ -71.084, 45.305 ] ] ] } },
{ "type": "Feature", "properties": { "state": "NH" }, "geometry": { "type": "Polygon", "coordinates": [ [ [ -71.501, 45.013 ], [ -71.58, 44.502 ], [ -72.046, 44.292 ], [ -72.379, 43.574 ], [ -72.459, 42.727 ], [ -71.294, 42.697 ], [ -70.817, 42.872 ], [ -70.704, 43.06 ], [ -70.984, 43.376 ], [ -71.084, 45.305 ], [ -71.501, 45.013 ] ] ] } },
{ "type": "Feature", "properties": { "state": "NM" }, "geometry": { "type": "Polygon", "coordinates": [ [ [ -109.045, 36.999 ], [ -109.046, 34.96 ], [ -109.047, 32.778 ], [ -109.05, 31.333 ], [ -108.209, 31.333 ], [ -108.208, 31.784 ], [ -106.528, 31.783 ], [ -106.618, 32.0 ], [ -104.644, 32.0 ], [ -103.064, 32.001 ], [ -103.044, 34.079 ], [ -103.002, 36.5 ], [ -103.002, 37.0 ], [ -106.006, 36.995 ], [ -109.045, 36.999 ] ] ] } },
{ "type": "Feature", "properties": { "state": "OH" }, "geometry": { "type": "Polygon", "coordinates": [ [ [ -84.806, 41.696 ], [ -84.82, 39.105 ], [ -84.462, 39.122 ], [ -84.213, 38.806 ], [ -83.287, 38.599 ], [ -82.889, 38.756 ], [ -82.594, 38.422 ], [ -81.898, 38.93 ], [ -81.678, 39.274 ], [ -81.129, 39.449 ], [ -80.83, 39.712 ], [ -80.519, 40.639 ], [ -80.519, 41.978 ], [ -81.287, 41.76 ], [ -81.739, 41.489 ], [ -82.461, 41.386 ], [ -83.454, 41.733 ], [ -84.806, 41.696 ] ] ] } },
{ "type": "Feature", "properties": { "state": "AL" }, "geometry": { "type": "Polygon", "coordinates": [ [ [ -88.2, 34.996 ], [ -88.098, 34.892 ], [ -88.469, 31.933 ], [ -88.395, 30.369 ], [ -87.518, 30.28 ], [ -87.4, 30.657 ], [ -87.599, 30.997 ], [ -85.002, 31.001 ], [ -85.142, 31.839 ], [ -84.892, 32.263 ], [ -85.184, 32.861 ], [ -85.605, 34.985 ], [ -88.2, 34.996 ] ] ] } },
{ "type": "Feature", "properties": { "state": "NE" }, "geometry": { "type": "Polygon", "coordinates": [ [ [ -104.053, 43.001 ], [ -104.053, 41.001 ], [ -102.052, 41.002 ], [ -102.052, 40.003 ], [ -99.813, 40.001 ], [ -98.076, 40.002 ], [ -95.308, 40.0 ], [ -95.766, 40.585 ], [ -95.923, 41.456 ], [ -96.446, 42.491 ], [ -97.238, 42.853 ], [ -98.499, 42.999 ], [ -102.082, 42.999 ], [ -104.053, 43.001 ] ] ] } },
{ "type": "Feature", "properties": { "state": "SD" }, "geometry": { "type": "Polygon", "coordinates": [ [ [ -104.058, 44.997 ], [ -104.053, 43.001 ], [ -102.082, 42.999 ], [ -98.499, 42.999 ], [ -97.238, 42.853 ], [ -96.446, 42.491 ], [ -96.622, 42.779 ], [ -96.453, 43.5 ], [ -96.458, 45.308 ], [ -96.826, 45.654 ], [ -96.564, 45.935 ], [ -99.49, 45.94 ], [ -102.088, 45.945 ], [ -104.045, 45.945 ], [ -104.058, 44.997 ] ] ] } },
{ "type": "Feature", "properties": { "state": "NV" }, "geometry": { "type": "Polygon", "coordinates": [ [ [ -119.999, 41.995 ], [ -120.001, 39.0 ], [ -117.681, 37.353 ], [ -116.488, 36.459 ], [ -114.633, 35.002 ], [ -114.736, 36.104 ], [ -114.047, 36.194 ], [ -114.051, 37.0 ], [ -114.049, 39.006 ], [ -114.042, 41.994 ], [ -117.026, 42.0 ], [ -119.999, 41.995 ] ] ] } },
{ "type": "Feature", "properties": { "state": "NJ" }, "geometry": { "type": "Polygon", "coordinates": [ [ [ -75.415, 39.802 ], [ -75.528, 39.498 ], [ -74.886, 39.144 ], [ -74.413, 39.361 ], [ -74.101, 39.756 ], [ -73.971, 40.348 ], [ -74.261, 40.502 ], [ -73.894, 40.997 ], [ -74.695, 41.357 ], [ -75.133, 40.98 ], [ -75.187, 40.569 ], [ -74.722, 40.154 ], [ -75.415, 39.802 ] ] ] } },
{ "type": "Feature", "properties": { "state": "ND" }, "geometry": { "type": "Polygon", "coordinates": [ [ [ -104.049, 49.0 ], [ -104.045, 45.945 ], [ -102.088, 45.945 ], [ -99.49, 45.94 ], [ -96.564, 45.935 ], [ -96.791, 46.637 ], [ -96.854, 47.572 ], [ -97.147, 48.169 ], [ -97.229, 49.001 ], [ -99.914, 48.999 ], [ -102.217, 48.999 ], [ -104.049, 49.0 ] ] ] } },
{ "type": "Feature", "properties": { "state": "SC" }, "geometry": { "type": "Polygon", "coordinates": [ [ [ -83.109, 35.001 ], [ -83.339, 34.682 ], [ -82.874, 34.472 ], [ -82.557, 33.945 ], [ -81.502, 33.015 ], [ -81.113, 32.113 ], [ -80.886, 32.035 ], [ -80.338, 32.479 ], [ -80.001, 32.606 ], [ -79.215, 33.156 ], [ -79.135, 33.404 ], [ -78.541, 33.851 ], [ -79.675, 34.805 ], [ -80.797, 34.824 ], [ -81.043, 35.149 ], [ -82.411, 35.202 ], [ -83.109, 35.001 ] ] ] } },
{ "type": "Feature", "properties": { "state": "AZ" }, "geometry": { "type": "Polygon", "coordinates": [ [ [ -114.72, 32.719 ], [ -114.814, 32.494 ], [ -112.365, 31.741 ], [ -111.075, 31.332 ], [ -109.05, 31.333 ], [ -109.047, 32.778 ], [ -109.046, 34.96 ], [ -109.045, 36.999 ], [ -111.278, 37.0 ], [ -114.051, 37.0 ], [ -114.047, 36.194 ], [ -114.736, 36.104 ], [ -114.633, 35.002 ], [ -114.139, 34.26 ], [ -114.535, 33.928 ], [ -114.707, 33.377 ], [ -114.72, 32.719 ] ] ] } },
{ "type": "Feature", "properties": { "state": "AR" }, "geometry": { "type": "Polygon", "coordinates": [ [ [ -94.618, 36.499 ], [ -94.432, 35.37 ], [ -94.486, 33.638 ], [ -94.043, 33.551 ], [ -94.043, 33.019 ], [ -91.166, 33.004 ], [ -91.216, 33.529 ], [ -90.895, 34.224 ], [ -90.309, 34.996 ], [ -89.733, 36.001 ], [ -90.154, 36.495 ], [ -92.35, 36.498 ], [ -94.618, 36.499 ] ] ] } }
]
}
