{
"type": "FeatureCollection",
"name": "stores",
"features": [
{ "type": "Feature", "properties": { "name": "Mesa", "street": "1919 W Main St", "city": "Mesa", "state": "AZ", "zip": "85201", "status": "open" }, "geometry": { "type": "Point", "coordinates": [ -111.87261, 33.41328 ] } },
{ "type": "Feature", "properties": { "name": "Arcadia", "street": "1101 W Huntington Dr", "city": "Arcadia", "state": "CA", "zip": "91007", "status": "open" }, "geometry": { "type": "Point", "coordinates": [ -118.06582, 34.13194 ] } },
{ "type": "Feature", "properties": { "name": "Balboa", "street": "7725 Balboa Ave", "city": "San Diego", "state": "CA", "zip": "92111", "status": "open" }, "geometry": { "type": "Point", "coordinates": [ -117.1574, 32.82085 ] } },
{ "type": "Feature", "properties": { "name": "Buena Park", "street": "5111 Beach Blvd", "city": "Buena Park", "state": "CA", "zip": "90621", "status": "open" }, "geometry": { "type": "Point", "coordinates": [ -117.99424, 33.88658 ] } },
{ "type": "Feature", "properties": { "name": "Cerritos", "street": "20137 Pioneer Blvd", "city": "Lakewood", "state": "CA", "zip": "90715", "status": "open" }, "geometry": { "type": "Point", "coordinates": [ -118.0821, 33.84887 ] } },
{ "type": "Feature", "properties": { "name": "Chino", "street": "3967 Grand Ave", "city": "Chino", "state": "CA", "zip": "91710", "status": "open" }, "geometry": { "type": "Point", "coordinates": [ -117.71771, 33.99743 ] } },
{ "type": "Feature", "properties": { "name": "Diamond Bar", "street": "2825 S Diamond Bar Blvd", "city": "Diamond Bar", "state": "CA", "zip": "91765", "status": "open" }, "geometry": { "type": "Point", "coordinates": [ -117.8382, 33.97376 ] } },
{ "type": "Feature", "properties": { "name": "Dublin", "street": "7884 Dublin Blvd", "city": "Dublin", "state": "CA", "zip": "94568", "status": "open" }, "geometry": { "type": "Point", "coordinates": [ -121.93104, 37.70228 ] } },
{ "type": "Feature", "properties": { "name": "Garden Grove", "street": "8911 Garden Grove Blvd", "city": "Garden Grove", "state": "CA", "zip": "92844", "status": "open" }, "geometry": { "type": "Point", "coordinates": [ -117.97725, 33.77436 ] } },
{ "type": "Feature", "properties": { "name": "Irvine", "street": "2600 Alton Pkwy", "city": "Irvine", "state": "CA", "zip": "92606", "status": "open" }, "geometry": { "type": "Point", "coordinates": [ -117.8345, 33.69008 ] } },
{ "type": "Feature", "properties": { "name": "Irvine NorthPark", "street": "3931 Irvine Blvd", "city": "Irvine", "state": "CA", "zip": "92602", "status": "open" }, "geometry": { "type": "Point", "coordinates": [ -117.77213, 33.72408 ] } },
{ "type": "Feature", "properties": { "name": "Irvine WestPark", "street": "3825 Alton Pkwy", "city": "Irvine", "state": "CA", "zip": "92606", "status": "open" }, "geometry": { "type": "Point", "coordinates": [ -117.81369, 33.68367 ] } },
{ "type": "Feature", "properties": { "name": "LA City Center", "street": "3500 W 6th St", "city": "Los Angeles", "state": "CA", "zip": "90020", "status": "open" }, "geometry": { "type": "Point", "coordinates": [ -118.29886, 34.06323 ] } },
{ "type": "Feature", "properties": { "name": "LA K-Town", "street": "928 S Western Ave", "city": "Los Angeles", "state": "CA", "zip": "90006", "status": "open" }, "geometry": { "type": "Point", "coordinates": [ -118.30896, 34.05456 ] } },
{ "type": "Feature", "properties": { "name": "LA Madang", "street": "621 S Western Ave", "city": "Los Angeles", "state": "CA", "zip": "90005", "status": "open" }, "geometry": { "type": "Point", "coordinates": [ -118.30943, 34.06278 ] } },
{ "type": "Feature", "properties": { "name": "San Diego", "street": "9440 Mira Mesa Blvd", "city": "San Diego", "state": "CA", "zip": "92126", "status": "open" }, "geometry": { "type": "Point", "coordinates": [ -117.12237, 32.91883 ] } },
{ "type": "Feature", "properties": { "name": "San Francisco", "street": "3995 Alemany Blvd", "city": "San Francisco", "state": "CA", "zip": "94132", "status": "open" }, "geometry": { "type": "Point", "coordinates": [ -122.46781, 37.71031 ] } },
{ "type": "Feature", "properties": { "name": "San Jose De Anza", "street": "1179 S De Anza Blvd", "city": "San Jose", "state": "CA", "zip": "95129", "status": "open" }, "geometry": { "type": "Point", "coordinates": [ -122.03222, 37.30405 ] } },
{ "type": "Feature", "properties": { "name": "San Jose Oakland", "street": "1710 Oakland Rd", "city": "San Jose", "state": "CA", "zip": "95131", "status": "open" }, "geometry": { "type": "Point", "coordinates": [ -121.89452, 37.38383 ] } },
{ "type": "Feature", "properties": { "name": "Torrance", "street": "4340 Pacific Coast Hwy", "city": "Torrance", "state": "CA", "zip": "90505", "status": "open" }, "geometry": { "type": "Point", "coordinates": [ -118.35997, 33.8084 ] } },
{ "type": "Feature", "properties": { "name": "Westminster", "street": "16450 Beach Blvd", "city": "Westminster", "state": "CA", "zip": "92683", "status": "open" }, "geometry": { "type": "Point", "coordinates": [ -117.98774, 33.72422 ] } },
{ "type": "Feature", "properties": { "name": "Orlando", "street": null, "city": "Orlando", "state": "FL", "zip": "32818", "status": "open" }, "geometry": { "type": "Point", "coordinates": [ -81.37905, 28.54212 ] } },
{ "type": "Feature", "properties": { "name": "Doraville", "street": "6035 Peachtree Rd Bldg B", "city": "Doraville", "state": "GA", "zip": "30360", "status": "open" }, "geometry": { "type": "Point", "coordinates": [ -84.28326, 33.89816 ] } },
{ "type": "Feature", "properties": { "name": "Duluth", "street": "2550 Pleasant Hill Rd bldg 300", "city": "Duluth", "state": "GA", "zip": "30096", "status": "open" }, "geometry": { "type": "Point", "coordinates": [ -84.1441, 34.00286 ] } },
{ "type": "Feature", "properties": { "name": "Johns Creek", "street": "10820 Abbotts Bridge Rd", "city": "Johns Creek", "state": "GA", "zip": "30097", "status": "open" }, "geometry": { "type": "Point", "coordinates": [ -84.17713, 34.04629 ] } },
{ "type": "Feature", "properties": { "name": "Riverdale", "street": "6335 GA-85", "city": "Riverdale", "state": "GA", "zip": "30274", "status": "open" }, "geometry": { "type": "Point", "coordinates": [ -84.41118, 33.58384 ] } },
{ "type": "Feature", "properties": { "name": "Suwanee", "street": "2700 Lawrenceville-Suwanee Rd", "city": "Suwanee", "state": "GA", "zip": "30024", "status": "open" }, "geometry": { "type": "Point", "coordinates": [ -84.04319, 34.02224 ] } },
{ "type": "Feature", "properties": { "name": "Kakaako", "street": "458 Keawe St", "city": "Honolulu", "state": "HI", "zip": "96813", "status": "open" }, "geometry": { "type": "Point", "coordinates": [ -157.86044, 21.3 ] } },
{ "type": "Feature", "properties": { "name": "Pearl City", "street": "850 Kamehameha Hwy", "city": "Pearl City", "state": "HI", "zip": "96782", "status": "open" }, "geometry": { "type": "Point", "coordinates": [ -157.96812, 21.395 ] } },
{ "type": "Feature", "properties": { "name": "Chicago", "street": "711 W Jackson Blvd", "city": "Chicago", "state": "IL", "zip": "60661", "status": "open" }, "geometry": { "type": "Point", "coordinates": [ -87.64471, 41.87774 ] } },
{ "type": "Feature", "properties": { "name": "Glenview", "street": "3385 Milwaukee Ave", "city": "Northbrook", "state": "IL", "zip": "60062", "status": "open" }, "geometry": { "type": "Point", "coordinates": [ -87.87412, 42.09152 ] } },
{ "type": "Feature", "properties": { "name": "Naperville", "street": "1295 E Ogden Ave", "city": "Naperville", "state": "IL", "zip": "60563", "status": "open" }, "geometry": { "type": "Point", "coordinates": [ -88.12352, 41.79579 ] } },
{ "type": "Feature", "properties": { "name": "Niles", "street": "801 Civic Center Dr", "city": "Niles", "state": "IL", "zip": "60714", "status": "open" }, "geometry": { "type": "Point", "coordinates": [ -87.80118, 42.02205 ] } },
{ "type": "Feature", "properties": { "name": "Schaumburg II", "street": "420 E Golf Rd", "city": "Schaumburg", "state": "IL", "zip": "60173", "status": "open" }, "geometry": { "type": "Point", "coordinates": [ -88.06911, 42.05213 ] } },
{ "type": "Feature", "properties": { "name": "Urbana", "street": "220 N Broadway Ave", "city": "Urbana", "state": "IL", "zip": "61801", "status": "open" }, "geometry": { "type": "Point", "coordinates": [ -88.20585, 40.11446 ] } },
{ "type": "Feature", "properties": { "name": "Brookline", "street": "1028 Beacon St", "city": "Brookline", "state": "MA", "zip": "02446", "status": "open" }, "geometry": { "type": "Point", "coordinates": [ -71.10821, 42.34616 ] } },
{ "type": "Feature", "properties": { "name": "Burlington", "street": "3 Old Concord Rd", "city": "Burlington", "state": "MA", "zip": "01803", "status": "open" }, "geometry": { "type": "Point", "coordinates": [ -71.20983, 42.47241 ] } },
{ "type": "Feature", "properties": { "name": "Cambridge", "street": "581 Massachusetts Ave", "city": "Cambridge", "state": "MA", "zip": "02139", "status": "open" }, "geometry": { "type": "Point", "coordinates": [ -71.10242, 42.36523 ] } },
{ "type": "Feature", "properties": { "name": "Quincy", "street": "101 Falls Blvd", "city": "Quincy", "state": "MA", "zip": "02169", "status": "open" }, "geometry": { "type": "Point", "coordinates": [ -70.9843, 42.23795 ] } },
{ "type": "Feature", "properties": { "name": "Somerville", "street": "240 Elm St", "city": "Somerville", "state": "MA", "zip": "02144", "status": "open" }, "geometry": { "type": "Point", "coordinates": [ -71.12209, 42.39508 ] } },
{ "type": "Feature", "properties": { "name": "Catonsville", "street": "800 N Rolling Rd", "city": "Catonsville", "state": "MD", "zip": "21228", "status": "open" }, "geometry": { "type": "Point", "coordinates": [ -76.75531, 39.28246 ] } },
{ "type": "Feature", "properties": { "name": "Ellicott City", "street": "3301 N Ridge Rd", "city": "Ellicott City", "state": "MD", "zip": "21043", "status": "open" }, "geometry": { "type": "Point", "coordinates": [ -76.81653, 39.2809 ] } },
{ "type": "Feature", "properties": { "name": "Frederick", "street": "1063 W Patrick St", "city": "Frederick", "state": "MD", "zip": "21702", "status": "open" }, "geometry": { "type": "Point", "coordinates": [ -77.44668, 39.4188 ] } },
{ "type": "Feature", "properties": { "name": "Gaithersburg", "street": "9639 Lost Knife Rd", "city": "Gaithersburg", "state": "MD", "zip": "20877", "status": "open" }, "geometry": { "type": "Point", "coordinates": [ -77.19736, 39.15431 ] } },
{ "type": "Feature", "properties": { "name": "Wheaton", "street": "12015 Georgia Ave", "city": "Wheaton", "state": "MD", "zip": "20902", "status": "open" }, "geometry": { "type": "Point", "coordinates": [ -77.0515, 39.05184 ] } },
{ "type": "Feature", "properties": { "name": "Troy", "street": "2963 E Big Beaver Rd", "city": "Troy", "state": "MI", "zip": "48083", "status": "open" }, "geometry": { "type": "Point", "coordinates": [ -83.08968, 42.56417 ] } },
{ "type": "Feature", "properties": { "name": "Cary", "street": "1961 High House Rd", "city": "Cary", "state": "NC", "zip": "27519", "status": "open" }, "geometry": { "type": "Point", "coordinates": [ -78.84883, 35.78887 ] } },
{ "type": "Feature", "properties": { "name": "American Dream", "street": "1 American Dream Wy", "city": "East Rutherford", "state": "NJ", "zip": "07073", "status": "open" }, "geometry": { "type": "Point", "coordinates": [ -74.07205, 40.80861 ] } },
{ "type": "Feature", "properties": { "name": "Cherry Hill", "street": "1720 Route 70 E", "city": "Cherry Hill", "state": "NJ", "zip": "08003", "status": "open" }, "geometry": { "type": "Point", "coordinates": [ -75.03073, 39.93484 ] } },
{ "type": "Feature", "properties": { "name": "Edison", "street": "1761 NJ-27", "city": "Edison", "state": "NJ", "zip": "08817", "status": "open" }, "geometry": { "type": "Point", "coordinates": [ -74.40653, 40.51244 ] } },
{ "type": "Feature", "properties": { "name": "Fort Lee", "street": "130 Linwood Plaza", "city": "Fort Lee", "state": "NJ", "zip": "07024", "status": "open" }, "geometry": { "type": "Point", "coordinates": [ -73.97014, 40.85093 ] } },
{ "type": "Feature", "properties": { "name": "Fort Lee Fresh", "street": "1379 16th St", "city": "Fort Lee", "state": "NJ", "zip": "07024", "status": "open" }, "geometry": { "type": "Point", "coordinates": [ -73.98024, 40.84496 ] } },
{ "type": "Feature", "properties": { "name": "Leonia", "street": "315 Broad Ave", "city": "Leonia", "state": "NJ", "zip": "07605", "status": "open" }, "geometry": { "type": "Point", "coordinates": [ -73.98778, 40.86147 ] } },
{ "type": "Feature", "properties": { "name": "Little Ferry", "street": "260 Bergen Turnpike", "city": "Little Ferry", "state": "NJ", "zip": "07643", "status": "open" }, "geometry": { "type": "Point", "coordinates": [ -74.03333, 40.85506 ] } },
{ "type": "Feature", "properties": { "name": "Paramus", "street": "60 NJ-17", "city": "Paramus", "state": "NJ", "zip": "07652", "status": "open" }, "geometry": { "type": "Point", "coordinates": [ -74.07212, 40.94726 ] } },
{ "type": "Feature", "properties": { "name": "Ridgefield", "street": "321 Broad Ave", "city": "Ridgefield", "state": "NJ", "zip": "07657", "status": "open" }, "geometry": { "type": "Point", "coordinates": [ -74.01041, 40.82424 ] } },
{ "type": "Feature", "properties": { "name": "Las Vegas", "street": "2620 S Decatur Blvd", "city": "Las Vegas", "state": "NV", "zip": "89102", "status": "open" }, "geometry": { "type": "Point", "coordinates": [ -115.20575, 36.15908 ] } },
{ "type": "Feature", "properties": { "name": "Bayside", "street": "46-40 Francis Lewis Blvd", "city": "Bayside", "state": "NY", "zip": "11361", "status": "open" }, "geometry": { "type": "Point", "coordinates": [ -73.77708, 40.76844 ] } },
{ "type": "Feature", "properties": { "name": "Great Neck", "street": "495 Great Neck Rd", "city": "Great Neck", "state": "NY", "zip": "11021", "status": "open" }, "geometry": { "type": "Point", "coordinates": [ -73.73273, 40.775 ] } },
{ "type": "Feature", "properties": { "name": "Hartsdale", "street": "371 N Central Ave", "city": "Hartsdale", "state": "NY", "zip": "10530", "status": "open" }, "geometry": { "type": "Point", "coordinates": [ -73.79008, 41.0285 ] } },
{ "type": "Feature", "properties": { "name": "Jericho", "street": "336 N Broadway", "city": "Jericho", "state": "NY", "zip": "11753", "status": "open" }, "geometry": { "type": "Point", "coordinates": [ -73.53377, 40.78105 ] } },
{ "type": "Feature", "properties": { "name": "Long Island City", "street": "48-18 Northern Blvd", "city": "Long Island City", "state": "NY", "zip": "11101", "status": "open" }, "geometry": { "type": "Point", "coordinates": [ -73.93709, 40.74904 ] } },
{ "type": "Feature", "properties": { "name": "Northern 144", "street": "144-74 Northern Blvd", "city": "Flushing", "state": "NY", "zip": "11354", "status": "open" }, "geometry": { "type": "Point", "coordinates": [ -73.81493, 40.76525 ] } },
{ "type": "Feature", "properties": { "name": "Northern 156", "street": "156-40 Northern Blvd", "city": "Flushing", "state": "NY", "zip": "11354", "status": "open" }, "geometry": { "type": "Point", "coordinates": [ -73.80894, 40.76293 ] } },
{ "type": "Feature", "properties": { "name": "Roosevelt", "street": "142-41 Roosevelt Ave", "city": "Flushing", "state": "NY", "zip": "11354", "status": "open" }, "geometry": { "type": "Point", "coordinates": [ -73.82494, 40.76118 ] } },
{ "type": "Feature", "properties": { "name": "Union", "street": "29-02 Union St", "city": "Flushing", "state": "NY", "zip": "11354", "status": "open" }, "geometry": { "type": "Point", "coordinates": [ -73.8268, 40.77194 ] } },
{ "type": "Feature", "properties": { "name": "Williston Park", "street": "400 Hillside Ave", "city": "Williston Park", "state": "NY", "zip": "11596", "status": "open" }, "geometry": { "type": "Point", "coordinates": [ -73.65631, 40.75438 ] } },
{ "type": "Feature", "properties": { "name": "Woodside", "street": "59-18 Woodside Ave", "city": "Woodside", "state": "NY", "zip": "11377", "status": "open" }, "geometry": { "type": "Point", "coordinates": [ -73.90487, 40.74507 ] } },
{ "type": "Feature", "properties": { "name": "Yonkers", "street": "1789 Central Park Ave", "city": "Yonkers", "state": "NY", "zip": "10710", "status": "open" }, "geometry": { "type": "Point", "coordinates": [ -73.84315, 40.95974 ] } },
{ "type": "Feature", "properties": { "name": "Elkins Park", "street": "7320 Old York Rd", "city": "Elkins Park", "state": "PA", "zip": "19027", "status": "open" }, "geometry": { "type": "Point", "coordinates": [ -75.12695, 40.07734 ] } },
{ "type": "Feature", "properties": { "name": "Levittown", "street": "1138 Bristol Oxford Valley Rd", "city": "Levittown", "state": "PA", "zip": "19057", "status": "open" }, "geometry": { "type": "Point", "coordinates": [ -74.87542, 40.16535 ] } },
{ "type": "Feature", "properties": { "name": "Philadelphia", "street": "6201 N Front St", "city": "Philadelphia", "state": "PA", "zip": "19120", "status": "open" }, "geometry": { "type": "Point", "coordinates": [ -75.11741, 40.04485 ] } },
{ "type": "Feature", "properties": { "name": "Upper Darby", "street": "7050 Terminal Square", "city": "Upper Darby", "state": "PA", "zip": "19082", "status": "open" }, "geometry": { "type": "Point", "coordinates": [ -75.26284, 39.96118 ] } },
{ "type": "Feature", "properties": { "name": "Austin", "street": "11301 Lakeline Blvd", "city": "Austin", "state": "TX", "zip": "78717", "status": "open" }, "geometry": { "type": "Point", "coordinates": [ -97.79899, 30.47963 ] } },
{ "type": "Feature", "properties": { "name": "Austin II", "street": "5222 Burnet Rd", "city": "Austin", "state": "TX", "zip": "78756", "status": "coming_soon" }, "geometry": { "type": "Point", "coordinates": [ -97.74057, 30.32485 ] } },
{ "type": "Feature", "properties": { "name": "Carrollton", "street": "2625 Old Denton Rd", "city": "Carrollton", "state": "TX", "zip": "75007", "status": "open" }, "geometry": { "type": "Point", "coordinates": [ -96.91271, 32.98586 ] } },
{ "type": "Feature", "properties": { "name": "Dallas Harry Hines", "street": "2534 Royal Ln", "city": "Dallas", "state": "TX", "zip": "75229", "status": "open" }, "geometry": { "type": "Point", "coordinates": [ -96.89434, 32.89586 ] } },
{ "type": "Feature", "properties": { "name": "Houston Bellaire", "street": "9896 Bellaire Blvd", "city": "Houston", "state": "TX", "zip": "77036", "status": "open" }, "geometry": { "type": "Point", "coordinates": [ -95.55399, 29.70653 ] } },
{ "type": "Feature", "properties": { "name": "Houston Blalock", "street": "1302 Blalock Rd", "city": "Houston", "state": "TX", "zip": "77055", "status": "open" }, "geometry": { "type": "Point", "coordinates": [ -95.52078, 29.79248 ] } },
{ "type": "Feature", "properties": { "name": "Katy", "street": "23119 Colonial Pkwy", "city": "Katy", "state": "TX", "zip": "77449", "status": "open" }, "geometry": { "type": "Point", "coordinates": [ -95.77342, 29.79333 ] } },
{ "type": "Feature", "properties": { "name": "Plano", "street": "3320 K Ave", "city": "Plano", "state": "TX", "zip": "75074", "status": "open" }, "geometry": { "type": "Point", "coordinates": [ -96.6964, 33.0389 ] } },
{ "type": "Feature", "properties": { "name": "Annandale", "street": "7885 Heritage Dr", "city": "Annandale", "state": "VA", "zip": "22003", "status": "open" }, "geometry": { "type": "Point", "coordinates": [ -77.21331, 38.82511 ] } },
{ "type": "Feature", "properties": { "name": "Burke", "street": "9550 Burke Rd", "city": "Burke", "state": "VA", "zip": "22015", "status": "open" }, "geometry": { "type": "Point", "coordinates": [ -77.27217, 38.79562 ] } },
{ "type": "Feature", "properties": { "name": "Centreville", "street": "13818 Braddock Rd", "city": "Centreville", "state": "VA", "zip": "20121", "status": "open" }, "geometry": { "type": "Point", "coordinates": [ -77.42714, 38.83785 ] } },
{ "type": "Feature", "properties": { "name": "Fairfax", "street": "11200 Fairfax Blvd", "city": "Fairfax", "state": "VA", "zip": "22030", "status": "open" }, "geometry": { "type": "Point", "coordinates": [ -77.33192, 38.85781 ] } },
{ "type": "Feature", "properties": { "name": "Falls Church", "street": "8103 Lee Hwy", "city": "Falls Church", "state": "VA", "zip": "22042", "status": "open" }, "geometry": { "type": "Point", "coordinates": [ -77.22506, 38.87445 ] } },
{ "type": "Feature", "properties": { "name": "Herndon", "street": "1228 Elden St", "city": "Herndon", "state": "VA", "zip": "20170", "status": "open" }, "geometry": { "type": "Point", "coordinates": [ -77.39969, 38.96235 ] } },
{ "type": "Feature", "properties": { "name": "Manassas", "street": "8819 Centreville Rd", "city": "Manassas", "state": "VA", "zip": "20110", "status": "open" }, "geometry": { "type": "Point", "coordinates": [ -77.45939, 38.76301 ] } }
]
}
